{"type": "FeatureCollection", "name": "ne_10m_lakes", "crs": {"type": "name", "properties": {"name": "urn:ogc:def:crs:OGC:1.3:CRS84"}}, "features": [{"type": "Feature", "properties": {"featurecla": "Lake", "scalerank": 0, "name": "Lake Albert", "name_abb": "L. Albert", "name_alt": null, "note": null, "delta": null, "dam_name": null, "year": -99, "admin": "admin-0", "min_zoom": 1, "min_label": 3, "label": "Lake Albert", "wikidataid": "Q125888", "name_ar": "\u0628\u062d\u064a\u0631\u0629 \u0623\u0644\u0628\u0631\u062a", "name_bn": "\u09b2\u09c7\u0995 \u0986\u09b2\u09ac\u09be\u09b0\u09cd\u099f", "name_de": "Albertsee", "name_en": "Albert", "name_es": "Alberto", "name_fr": "Albert", "name_el": "\u039b\u03af\u03bc\u03bd\u03b7 \u0391\u03bb\u03b2\u03ad\u03c1\u03c4\u03bf\u03c5", "name_hi": "\u0910\u0932\u094d\u092c\u0930\u094d\u091f \u091d\u0940\u0932", "name_hu": "Albert-t\u00f3", "name_id": "Albert", "name_it": "Alberto", "name_ja": "\u30a2\u30eb\u30d0\u30fc\u30c8\u6e56", "name_ko": "\uc568\ubc84\ud2b8\ud638", "name_nl": "Albertmeer", "name_pl": "Jezioro Alberta", "name_pt": "Alberto", "name_ru": "\u0410\u043b\u044c\u0431\u0435\u0440\u0442", "name_sv": "Albertsj\u00f6n", "name_tr": "Albert", "name_vi": "Albert", "name_zh": "\u827e\u4f2f\u7279\u6e56", "ne_id": 1159113145, "name_fa": "\u062f\u0631\u06cc\u0627\u0686\u0647 \u0622\u0644\u0628\u0631\u062a", "name_he": "\u05d0\u05d2\u05dd \u05d0\u05dc\u05d1\u05e8\u05d8", "name_uk": "\u0410\u043b\u044c\u0431\u0435\u0440\u0442", "name_ur": "\u062c\u06be\u06cc\u0644 \u0627\u0644\u0628\u0631\u0679", "name_zht": "\u827e\u4f2f\u7279\u6e56"}, "bbox": [30.385888, 1.013904, 31.474741, 2.408307], "geometry": {"type": "Polygon", "coordinates": [[[31.366121, 2.271427], [31.360528, 2.262302], [31.358173, 2.253471], [31.359645, 2.208139], [31.361705, 2.199308], [31.374657, 2.184296], [31.389376, 2.161041], [31.394674, 2.137492], [31.378484, 2.120713], [31.403799, 2.058308], [31.405271, 2.02475], [31.385549, 1.997374], [31.403799, 1.95322], [31.406154, 1.938796], [31.406154, 1.914658], [31.404388, 1.909065], [31.402033, 1.904944], [31.399973, 1.89994], [31.394674, 1.863144], [31.381133, 1.837829], [31.359645, 1.824288], [31.330797, 1.832825], [31.321966, 1.812219], [31.315784, 1.759823], [31.309603, 1.737156], [31.295768, 1.711841], [31.281933, 1.695651], [31.24131, 1.668275], [31.183909, 1.614407], [31.123565, 1.582027], [31.111201, 1.578789], [31.097955, 1.580555], [31.086475, 1.584676], [31.075583, 1.586148], [31.06322, 1.578789], [31.05645, 1.583498], [31.049679, 1.586442], [31.036727, 1.556123], [31.008174, 1.541993], [30.974322, 1.532868], [30.946652, 1.517561], [30.928696, 1.49254], [30.898376, 1.433373], [30.730883, 1.239681], [30.72058, 1.22408], [30.718814, 1.208773], [30.718814, 1.192877], [30.714399, 1.174921], [30.604012, 1.058058], [30.60725, 1.052171], [30.606661, 1.048344], [30.601363, 1.04599], [30.590471, 1.044518], [30.599891, 1.038925], [30.604012, 1.037747], [30.604012, 1.031566], [30.59106, 1.027445], [30.577519, 1.028033], [30.56545, 1.033626], [30.556031, 1.044518], [30.546611, 1.038042], [30.542196, 1.029799], [30.539546, 1.021557], [30.533659, 1.013904], [30.530421, 1.024207], [30.531304, 1.034509], [30.533953, 1.045695], [30.53572, 1.058058], [30.517469, 1.041574], [30.506283, 1.034509], [30.497747, 1.034509], [30.491859, 1.044812], [30.495686, 1.054526], [30.503045, 1.063946], [30.507755, 1.072482], [30.509816, 1.09456], [30.5054, 1.108395], [30.497158, 1.121052], [30.488033, 1.140775], [30.494214, 1.159908], [30.487444, 1.181103], [30.486266, 1.199059], [30.507755, 1.209067], [30.507755, 1.215838], [30.493331, 1.223491], [30.466838, 1.250573], [30.465661, 1.255577], [30.460657, 1.266174], [30.455064, 1.271472], [30.452415, 1.260581], [30.452415, 1.229673], [30.447999, 1.230261], [30.44741, 1.231145], [30.447705, 1.232911], [30.446233, 1.236443], [30.436224, 1.225552], [30.432692, 1.222608], [30.430337, 1.239681], [30.421212, 1.254105], [30.407671, 1.26117], [30.392364, 1.256754], [30.391481, 1.26794], [30.39207, 1.278537], [30.394425, 1.288546], [30.398546, 1.297671], [30.385888, 1.310329], [30.392953, 1.323869], [30.408849, 1.334761], [30.422095, 1.339471], [30.452415, 1.401287], [30.465661, 1.420715], [30.476847, 1.441615], [30.484795, 1.463987], [30.488033, 1.486358], [30.490976, 1.496661], [30.49863, 1.509024], [30.508638, 1.519327], [30.518352, 1.523743], [30.526006, 1.529041], [30.541901, 1.555239], [30.54926, 1.565248], [30.596359, 1.587325], [30.62138, 1.602926], [30.631977, 1.623826], [30.638453, 1.645609], [30.654054, 1.662977], [30.724996, 1.706837], [30.734415, 1.715668], [30.745012, 1.745693], [30.751488, 1.750109], [30.765912, 1.756879], [30.816249, 1.798679], [30.912506, 1.90671], [30.954011, 1.929082], [30.983742, 1.93232], [30.994928, 1.935264], [31.004936, 1.940856], [31.012001, 1.948804], [31.017888, 1.95793], [31.025247, 1.966466], [31.067047, 2.002673], [31.111201, 2.031521], [31.120915, 2.035053], [31.142698, 2.040352], [31.152118, 2.045061], [31.160655, 2.054775], [31.175373, 2.079502], [31.183026, 2.08951], [31.201571, 2.106583], [31.211285, 2.111588], [31.224237, 2.113354], [31.236895, 2.116886], [31.239544, 2.126012], [31.238661, 2.137197], [31.24131, 2.1475], [31.294296, 2.190772], [31.303421, 2.205784], [31.306365, 2.22639], [31.314313, 2.245229], [31.325204, 2.262302], [31.367593, 2.309989], [31.386432, 2.322647], [31.439123, 2.341192], [31.450898, 2.348256], [31.4612, 2.359737], [31.465616, 2.371511], [31.469443, 2.39771], [31.474741, 2.408307], [31.474447, 2.358854], [31.467971, 2.335893], [31.450603, 2.326179], [31.432353, 2.321175], [31.412042, 2.3094], [31.378484, 2.284674], [31.372597, 2.279375], [31.366121, 2.271427]]]}}, {"type": "Feature", "properties": {"featurecla": "Lake", "scalerank": 0, "name": "Lake Victoria", "name_abb": "L. Victoria", "name_alt": null, "note": null, "delta": null, "dam_name": null, "year": -99, "admin": "admin-0", "min_zoom": 1, "min_label": 3, "label": "Lake Victoria", "wikidataid": "Q5505", "name_ar": "\u0628\u062d\u064a\u0631\u0629 \u0641\u064a\u0643\u062a\u0648\u0631\u064a\u0627", "name_bn": "\u09ad\u09bf\u0995\u09cd\u099f\u09cb\u09b0\u09bf\u09af\u09bc\u09be \u09b9\u09cd\u09b0\u09a6", "name_de": "Victoriasee", "name_en": "Nyanza", "name_es": "Victoria", "name_fr": "Victoria", "name_el": "\u0392\u03b9\u03ba\u03c4\u03cc\u03c1\u03b9\u03b1", "name_hi": "\u0935\u093f\u0915\u094d\u091f\u094b\u0930\u093f\u092f\u093e \u091d\u0940\u0932", "name_hu": "Vikt\u00f3ria-t\u00f3", "name_id": "Victoria", "name_it": "Vittoria", "name_ja": "\u30f4\u30a3\u30af\u30c8\u30ea\u30a2\u6e56", "name_ko": "\ube45\ud1a0\ub9ac\uc544\ud638", "name_nl": "Victoriameer", "name_pl": "Jezioro Wiktorii", "name_pt": "Vit\u00f3ria", "name_ru": "\u0412\u0438\u043a\u0442\u043e\u0440\u0438\u044f", "name_sv": "Victoriasj\u00f6n", "name_tr": "Victoria", "name_vi": "Victoria", "name_zh": "\u7dad\u591a\u5229\u4e9e\u6e56", "ne_id": 1159113191, "name_fa": "\u062f\u0631\u06cc\u0627\u0686\u0647 \u0648\u06cc\u06a9\u062a\u0648\u0631\u06cc\u0627", "name_he": "\u05d0\u05d2\u05dd \u05d5\u05d9\u05e7\u05d8\u05d5\u05e8\u05d9\u05d4", "name_uk": "\u0412\u0456\u043a\u0442\u043e\u0440\u0456\u044f", "name_ur": "\u062c\u06be\u06cc\u0644 \u0648\u06a9\u0679\u0648\u0631\u06cc\u06c1", "name_zht": "\u7dad\u591a\u5229\u4e9e\u6e56"}, "bbox": [31.611032, -3.012114, 34.85463, 0.497], "geometry": {"type": "Polygon", "coordinates": [[[33.913548, -1.532052], [33.904717, -1.529402], [33.888821, -1.52116], [33.879402, -1.518216], [33.870276, -1.517333], [33.841723, -1.518216], [33.82465, -1.512329], [33.816702, -1.4982], [33.810226, -1.482304], [33.797568, -1.470529], [33.793153, -1.481715], [33.784322, -1.48201], [33.771664, -1.478183], [33.755769, -1.476711], [33.747821, -1.47936], [33.734575, -1.489074], [33.725744, -1.491135], [33.716618, -1.489074], [33.710437, -1.484659], [33.705727, -1.479949], [33.7019, -1.476711], [33.681, -1.466408], [33.66746, -1.464348], [33.653919, -1.470529], [33.647443, -1.482304], [33.652741, -1.492018], [33.661867, -1.500849], [33.667754, -1.511446], [33.682472, -1.508797], [33.686004, -1.519099], [33.681295, -1.534995], [33.671286, -1.549125], [33.657157, -1.555012], [33.64185, -1.554423], [33.626543, -1.555601], [33.612413, -1.566198], [33.619184, -1.571202], [33.627426, -1.572674], [33.636846, -1.570908], [33.64656, -1.566198], [33.648326, -1.577972], [33.653919, -1.584154], [33.66275, -1.584743], [33.674524, -1.580327], [33.686888, -1.597695], [33.688359, -1.604171], [33.687771, -1.615357], [33.685416, -1.617711], [33.679234, -1.619478], [33.667754, -1.628014], [33.67629, -1.632135], [33.684238, -1.633901], [33.692775, -1.633018], [33.7019, -1.628014], [33.709259, -1.636845], [33.71132, -1.648325], [33.70867, -1.6601], [33.7019, -1.669814], [33.695424, -1.673641], [33.687771, -1.675407], [33.585332, -1.675996], [33.549125, -1.672169], [33.543238, -1.675407], [33.550597, -1.690125], [33.556779, -1.696307], [33.578267, -1.710142], [33.584154, -1.716029], [33.589747, -1.723094], [33.598873, -1.738106], [33.605643, -1.730453], [33.614768, -1.738695], [33.641261, -1.756946], [33.64656, -1.76195], [33.641261, -1.775196], [33.629487, -1.778434], [33.617712, -1.775491], [33.612413, -1.76872], [33.580622, -1.761067], [33.578267, -1.758418], [33.567376, -1.765482], [33.567081, -1.771664], [33.568848, -1.779906], [33.564726, -1.792564], [33.557073, -1.803455], [33.550008, -1.809637], [33.540883, -1.812581], [33.527048, -1.813169], [33.522632, -1.81729], [33.515273, -1.826416], [33.505265, -1.835541], [33.492607, -1.839662], [33.470824, -1.840251], [33.450808, -1.837307], [33.440505, -1.825533], [33.447864, -1.799628], [33.388402, -1.798745], [33.365148, -1.804338], [33.338066, -1.826121], [33.331296, -1.837307], [33.321287, -1.86586], [33.311279, -1.883522], [33.310396, -1.890881], [33.31069, -1.9056], [33.307158, -1.907366], [33.28302, -1.922378], [33.314223, -1.944456], [33.352784, -1.924733], [33.392523, -1.897063], [33.427553, -1.895002], [33.430202, -1.884994], [33.437855, -1.880284], [33.449041, -1.879696], [33.461699, -1.881462], [33.455223, -1.893531], [33.460816, -1.901478], [33.482304, -1.915608], [33.490252, -1.926794], [33.488486, -1.932387], [33.461699, -1.949754], [33.504382, -1.953581], [33.544121, -1.963295], [33.542355, -1.967416], [33.541766, -1.968299], [33.540589, -1.968299], [33.536762, -1.970065], [33.544415, -1.973303], [33.547065, -1.975364], [33.550008, -1.974481], [33.557956, -1.970065], [33.573263, -1.987138], [33.569142, -2.001562], [33.557073, -2.014809], [33.550597, -2.028938], [33.542649, -2.0257], [33.496434, -2.025406], [33.431379, -1.981251], [33.399883, -1.972126], [33.372212, -1.99803], [33.400177, -2.038947], [33.386047, -2.042773], [33.382515, -2.046011], [33.379571, -2.05337], [33.340421, -2.01893], [33.324231, -2.016575], [33.324525, -2.045717], [33.317755, -2.045717], [33.310396, -2.030999], [33.296855, -2.011276], [33.281548, -2.000385], [33.269774, -2.011571], [33.284786, -2.01893], [33.29244, -2.031587], [33.292734, -2.045423], [33.285964, -2.056314], [33.280959, -2.052487], [33.256233, -2.045717], [33.256233, -2.047189], [33.228268, -2.045717], [33.223264, -2.044539], [33.220909, -2.041596], [33.218849, -2.042773], [33.214727, -2.05337], [33.217082, -2.05337], [33.219143, -2.061907], [33.221203, -2.072504], [33.221498, -2.079863], [33.217671, -2.09046], [33.20884, -2.104295], [33.207663, -2.114892], [33.210018, -2.123135], [33.21355, -2.130199], [33.221498, -2.141974], [33.239454, -2.121663], [33.259471, -2.111066], [33.282431, -2.111066], [33.31069, -2.121663], [33.336594, -2.135792], [33.347486, -2.146095], [33.351901, -2.159047], [33.358083, -2.167584], [33.372507, -2.166112], [33.400177, -2.155809], [33.449336, -2.151099], [33.509386, -2.15316], [33.566198, -2.163168], [33.605643, -2.182891], [33.628898, -2.158164], [33.642144, -2.146684], [33.657157, -2.141974], [33.666576, -2.137559], [33.712203, -2.10459], [33.749293, -2.08575], [33.786383, -2.094876], [33.815819, -2.123135], [33.83142, -2.162579], [33.831126, -2.171999], [33.825533, -2.187895], [33.82465, -2.197314], [33.827005, -2.200552], [33.831715, -2.204674], [33.836425, -2.210561], [33.838485, -2.220569], [33.780495, -2.258837], [33.770193, -2.260603], [33.75989, -2.269728], [33.715441, -2.279148], [33.7019, -2.286801], [33.667754, -2.313294], [33.64862, -2.30829], [33.633902, -2.318887], [33.612413, -2.34744], [33.597401, -2.356565], [33.557367, -2.372167], [33.540589, -2.374816], [33.532346, -2.378643], [33.522338, -2.387179], [33.513801, -2.397482], [33.509975, -2.40543], [33.511447, -2.414261], [33.514979, -2.418382], [33.520572, -2.421031], [33.527048, -2.426035], [33.529991, -2.440165], [33.515273, -2.448701], [33.49349, -2.448407], [33.475828, -2.435749], [33.465526, -2.444286], [33.442565, -2.452234], [33.416956, -2.467246], [33.407536, -2.467246], [33.407536, -2.467835], [33.420782, -2.477255], [33.4564, -2.493739], [33.461699, -2.501687], [33.458755, -2.516111], [33.450808, -2.527002], [33.439916, -2.531123], [33.427553, -2.524942], [33.42196, -2.532301], [33.420782, -2.539071], [33.422843, -2.545547], [33.427553, -2.552906], [33.41048, -2.554378], [33.399883, -2.552023], [33.39429, -2.544075], [33.392818, -2.528768], [33.38693, -2.530829], [33.373095, -2.532595], [33.3572, -2.531418], [33.344836, -2.524942], [33.347486, -2.522292], [33.351018, -2.513756], [33.353373, -2.504336], [33.351901, -2.498449], [33.344542, -2.495505], [33.33836, -2.497566], [33.334239, -2.502276], [33.329824, -2.5167], [33.323053, -2.514345], [33.315694, -2.508457], [33.31069, -2.505219], [33.286258, -2.511107], [33.233861, -2.517877], [33.221498, -2.518171], [33.207663, -2.512873], [33.185585, -2.495211], [33.177343, -2.491384], [33.173222, -2.488146], [33.174105, -2.473722], [33.170573, -2.470484], [33.169984, -2.469013], [33.151145, -2.46342], [33.147024, -2.462831], [33.138487, -2.452528], [33.127007, -2.428979], [33.119059, -2.416321], [33.119354, -2.400131], [33.080497, -2.388945], [32.999253, -2.380409], [32.962752, -2.388357], [32.926545, -2.409257], [32.902996, -2.438399], [32.906823, -2.470484], [32.892399, -2.465186], [32.881507, -2.467246], [32.874737, -2.477255], [32.872676, -2.494917], [32.877975, -2.507574], [32.901524, -2.532595], [32.906823, -2.549668], [32.900641, -2.554084], [32.877092, -2.586758], [32.876209, -2.594412], [32.865612, -2.601476], [32.865023, -2.617372], [32.869733, -2.634445], [32.876209, -2.645631], [32.895048, -2.658877], [32.899169, -2.662704], [32.907706, -2.675362], [32.909472, -2.679189], [32.906234, -2.681543], [32.899169, -2.69008], [32.895637, -2.688314], [32.888278, -2.687136], [32.880919, -2.690963], [32.879447, -2.704504], [32.883273, -2.708625], [32.900347, -2.724226], [32.906823, -2.730997], [32.910944, -2.73865], [32.916537, -2.753368], [32.920363, -2.758961], [32.925956, -2.762494], [32.942441, -2.769558], [32.947739, -2.772502], [32.954804, -2.786337], [32.948034, -2.793696], [32.93567, -2.802233], [32.927134, -2.820483], [32.960103, -2.818717], [32.968639, -2.820483], [32.969522, -2.824016], [32.96805, -2.837262], [32.968639, -2.841089], [32.982474, -2.848448], [32.991894, -2.849625], [33.00043, -2.846093], [33.010144, -2.845504], [33.023391, -2.85463], [33.027806, -2.861106], [33.029278, -2.868759], [33.028101, -2.876118], [33.023391, -2.882594], [33.011322, -2.883772], [32.991599, -2.878179], [32.933904, -2.851686], [32.917714, -2.8405], [32.908, -2.824604], [32.906823, -2.799878], [32.899169, -2.799878], [32.890927, -2.821955], [32.877681, -2.831963], [32.860607, -2.839028], [32.841179, -2.851392], [32.832348, -2.866404], [32.825284, -2.888481], [32.822046, -2.90997], [32.824989, -2.922922], [32.809388, -2.960895], [32.803795, -2.970609], [32.770826, -2.999457], [32.762879, -3.012114], [32.755519, -3.012114], [32.747866, -3.000045], [32.745511, -2.985033], [32.748749, -2.969137], [32.759052, -2.95383], [32.762584, -2.941761], [32.76229, -2.928221], [32.769649, -2.918212], [32.79673, -2.91674], [32.79673, -2.90997], [32.764939, -2.886126], [32.745511, -2.877296], [32.728438, -2.882594], [32.72049, -2.869642], [32.725494, -2.862577], [32.749043, -2.85463], [32.781718, -2.836673], [32.793198, -2.834024], [32.805856, -2.833141], [32.847361, -2.82431], [32.84795, -2.816657], [32.844417, -2.805765], [32.844712, -2.793107], [32.865906, -2.754546], [32.872971, -2.728936], [32.862079, -2.717456], [32.834115, -2.714218], [32.822929, -2.705387], [32.82705, -2.692435], [32.844712, -2.676539], [32.825578, -2.665648], [32.81763, -2.66447], [32.810566, -2.668886], [32.805856, -2.660938], [32.802029, -2.652696], [32.79673, -2.635034], [32.811743, -2.639155], [32.817336, -2.642393], [32.821457, -2.623259], [32.815864, -2.603831], [32.816158, -2.589702], [32.837647, -2.587053], [32.834115, -2.575572], [32.82911, -2.56733], [32.821457, -2.563798], [32.810566, -2.566447], [32.812332, -2.549963], [32.820574, -2.539366], [32.830877, -2.53024], [32.837647, -2.518171], [32.837647, -2.51199], [32.828522, -2.50934], [32.824401, -2.504336], [32.820868, -2.497271], [32.814098, -2.488146], [32.805267, -2.485203], [32.787899, -2.495211], [32.776419, -2.491384], [32.76229, -2.499626], [32.746689, -2.522881], [32.73462, -2.532595], [32.734914, -2.519349], [32.732265, -2.498743], [32.73462, -2.491384], [32.728438, -2.484614], [32.687227, -2.511107], [32.673392, -2.518171], [32.679868, -2.504336], [32.690171, -2.489618], [32.69488, -2.473428], [32.683989, -2.453706], [32.669565, -2.433983], [32.666327, -2.418088], [32.665738, -2.401603], [32.659557, -2.380409], [32.650726, -2.388945], [32.641895, -2.40543], [32.635125, -2.422209], [32.632475, -2.432511], [32.630415, -2.453411], [32.624822, -2.467246], [32.549465, -2.538482], [32.524738, -2.552906], [32.502072, -2.546136], [32.516201, -2.518171], [32.522972, -2.509635], [32.540339, -2.494917], [32.548581, -2.482259], [32.552997, -2.466658], [32.553586, -2.450468], [32.550642, -2.435749], [32.543577, -2.435749], [32.537984, -2.446641], [32.517673, -2.459887], [32.509431, -2.470484], [32.5006, -2.461948], [32.492064, -2.455766], [32.483233, -2.455472], [32.475285, -2.462831], [32.465865, -2.45871], [32.455562, -2.456355], [32.444965, -2.45606], [32.433779, -2.456649], [32.436134, -2.451939], [32.439372, -2.440459], [32.441139, -2.435749], [32.395218, -2.436632], [32.371374, -2.432217], [32.358128, -2.416321], [32.361072, -2.403664], [32.338111, -2.378937], [32.320155, -2.353916], [32.323982, -2.333899], [32.330163, -2.333016], [32.338994, -2.334782], [32.345176, -2.337726], [32.344293, -2.341258], [32.356656, -2.333605], [32.361072, -2.328895], [32.35489, -2.32654], [32.338111, -2.323302], [32.328691, -2.315649], [32.309852, -2.271789], [32.305731, -2.2712], [32.293073, -2.271789], [32.28071, -2.274732], [32.270407, -2.280619], [32.258633, -2.283857], [32.241854, -2.279148], [32.237144, -2.273555], [32.230963, -2.256482], [32.227725, -2.252066], [32.218894, -2.250889], [32.214184, -2.256187], [32.213889, -2.262369], [32.217716, -2.265607], [32.223898, -2.272672], [32.225075, -2.289156], [32.221543, -2.320947], [32.202998, -2.321536], [32.177388, -2.370401], [32.159432, -2.388357], [32.146186, -2.391006], [32.132939, -2.388651], [32.122931, -2.381881], [32.119104, -2.370989], [32.082014, -2.369517], [32.077599, -2.367457], [32.070534, -2.37511], [32.066413, -2.385707], [32.064352, -2.398659], [32.063764, -2.412789], [32.067885, -2.424564], [32.077304, -2.429568], [32.088785, -2.431923], [32.09791, -2.435749], [32.102325, -2.441931], [32.104386, -2.454294], [32.107918, -2.459887], [32.114983, -2.464008], [32.129996, -2.469896], [32.146186, -2.482259], [32.157372, -2.488441], [32.166791, -2.496388], [32.173562, -2.51199], [32.162376, -2.520821], [32.160904, -2.535833], [32.156783, -2.550846], [32.138238, -2.560265], [32.138532, -2.552023], [32.132056, -2.532595], [32.119399, -2.536422], [32.108213, -2.530829], [32.101737, -2.521115], [32.104386, -2.51199], [32.095555, -2.506397], [32.086724, -2.503159], [32.077893, -2.502864], [32.069945, -2.505219], [32.074361, -2.513167], [32.07495, -2.515522], [32.072889, -2.517583], [32.069945, -2.524942], [32.058465, -2.509046], [32.035505, -2.483142], [32.029618, -2.470484], [32.026085, -2.478727], [32.02373, -2.486674], [32.022553, -2.494917], [32.022847, -2.505219], [32.016077, -2.505219], [32.007246, -2.486969], [31.993999, -2.490795], [31.985757, -2.507869], [31.991939, -2.528768], [31.992233, -2.537011], [31.988407, -2.561443], [31.991939, -2.566447], [31.995177, -2.568802], [31.995471, -2.573806], [31.994294, -2.579399], [31.991939, -2.583815], [31.982814, -2.590879], [31.977809, -2.590879], [31.973983, -2.587641], [31.96839, -2.587053], [31.95691, -2.588524], [31.948373, -2.58823], [31.941014, -2.589113], [31.934244, -2.594412], [31.932183, -2.601182], [31.935715, -2.607952], [31.942486, -2.612957], [31.950728, -2.615017], [31.957793, -2.618549], [31.965446, -2.627086], [31.971922, -2.637389], [31.977221, -2.659466], [31.983697, -2.66712], [31.990467, -2.671535], [31.994883, -2.676539], [31.995766, -2.683604], [31.994294, -2.702738], [31.994883, -2.710685], [32.00077, -2.717161], [32.01902, -2.732174], [32.022847, -2.741594], [32.015488, -2.760139], [31.999004, -2.768381], [31.980753, -2.765732], [31.96839, -2.752191], [31.965152, -2.729819], [31.965446, -2.709802], [31.959853, -2.695673], [31.937187, -2.69008], [31.937187, -2.68066], [31.938659, -2.661821], [31.931889, -2.648575], [31.906279, -2.655934], [31.906573, -2.641216], [31.904513, -2.63474], [31.899509, -2.635034], [31.893327, -2.640921], [31.894504, -2.644454], [31.898037, -2.648575], [31.899509, -2.655934], [31.899214, -2.667708], [31.902452, -2.699794], [31.906279, -2.710685], [31.888028, -2.712452], [31.872133, -2.717456], [31.874488, -2.702443], [31.868306, -2.687431], [31.858003, -2.678011], [31.847995, -2.679777], [31.839458, -2.686842], [31.832099, -2.691257], [31.826506, -2.697145], [31.824151, -2.707447], [31.829156, -2.720988], [31.830627, -2.728053], [31.827389, -2.730997], [31.828861, -2.738061], [31.842108, -2.773385], [31.844757, -2.786337], [31.838281, -2.799878], [31.825329, -2.814302], [31.810022, -2.826665], [31.796481, -2.834024], [31.78294, -2.81489], [31.782352, -2.790753], [31.790299, -2.741594], [31.789416, -2.725698], [31.786473, -2.718633], [31.78088, -2.717161], [31.762335, -2.717456], [31.759686, -2.715984], [31.760863, -2.711274], [31.763512, -2.692729], [31.775876, -2.668886], [31.775581, -2.664765], [31.773521, -2.660055], [31.773521, -2.654168], [31.779408, -2.645631], [31.785001, -2.642982], [31.797953, -2.643865], [31.809139, -2.640038], [31.81326, -2.641216], [31.815909, -2.640038], [31.816792, -2.631796], [31.816792, -2.624142], [31.817087, -2.620021], [31.819147, -2.617961], [31.824151, -2.615017], [31.835337, -2.615017], [31.846817, -2.619138], [31.855648, -2.617372], [31.858298, -2.600888], [31.846229, -2.605597], [31.829744, -2.607952], [31.799719, -2.608247], [31.769105, -2.617961], [31.754681, -2.620021], [31.7485, -2.611485], [31.7485, -2.556733], [31.743201, -2.547019], [31.731427, -2.54437], [31.719652, -2.539071], [31.714354, -2.521704], [31.717886, -2.507574], [31.726717, -2.504925], [31.739963, -2.506397], [31.75527, -2.505219], [31.771166, -2.49786], [31.78294, -2.487852], [31.791183, -2.475783], [31.796481, -2.462831], [31.795304, -2.455472], [31.791477, -2.448113], [31.789416, -2.440754], [31.796187, -2.424858], [31.789711, -2.420442], [31.775876, -2.416321], [31.759391, -2.393067], [31.756153, -2.380998], [31.75527, -2.361275], [31.771166, -2.36363], [31.772343, -2.357449], [31.763512, -2.348029], [31.7485, -2.341258], [31.751149, -2.337137], [31.75527, -2.32654], [31.725245, -2.320359], [31.704051, -2.331839], [31.684917, -2.349206], [31.659307, -2.361275], [31.641646, -2.361864], [31.633698, -2.356271], [31.631637, -2.343319], [31.631932, -2.323597], [31.633992, -2.316238], [31.638996, -2.308584], [31.649299, -2.296221], [31.652831, -2.288273], [31.652243, -2.258837], [31.672259, -2.199375], [31.669316, -2.189955], [31.674909, -2.182596], [31.693748, -2.141974], [31.691687, -2.134909], [31.681679, -2.123723], [31.680502, -2.114892], [31.684328, -2.105473], [31.697869, -2.087811], [31.700813, -2.076625], [31.698458, -2.071621], [31.688449, -2.063673], [31.686389, -2.059552], [31.687861, -2.054548], [31.692865, -2.047189], [31.695514, -2.033648], [31.706994, -2.0048], [31.689333, -2.005978], [31.680502, -2.011865], [31.67432, -2.019518], [31.666078, -2.025406], [31.656658, -2.027761], [31.651065, -2.027466], [31.645178, -2.026289], [31.63517, -2.025406], [31.629282, -2.028644], [31.626044, -2.035709], [31.621334, -2.040713], [31.611032, -2.038947], [31.612504, -2.003623], [31.618391, -1.974186], [31.630754, -1.947988], [31.673731, -1.895002], [31.684328, -1.867332], [31.693748, -1.799628], [31.698458, -1.783733], [31.711704, -1.755474], [31.720535, -1.675996], [31.736136, -1.643616], [31.754093, -1.619772], [31.760863, -1.596517], [31.741729, -1.566198], [31.752621, -1.537644], [31.748794, -1.493784], [31.75527, -1.46582], [31.796481, -1.48407], [31.801191, -1.470824], [31.802957, -1.456106], [31.802957, -1.425492], [31.805312, -1.411951], [31.814732, -1.389874], [31.820913, -1.347485], [31.842108, -1.306863], [31.850938, -1.278015], [31.858592, -1.182347], [31.8686, -1.158798], [31.870072, -1.149967], [31.864185, -1.138487], [31.856237, -1.125829], [31.850938, -1.113466], [31.85035, -1.099336], [31.851527, -1.087267], [31.851233, -1.075198], [31.844757, -1.059008], [31.853882, -1.051944], [31.867129, -1.038108], [31.873899, -1.024568], [31.86183, -1.01868], [31.853588, -1.021035], [31.845934, -1.024568], [31.840047, -1.024273], [31.837986, -1.014854], [31.838281, -1.003962], [31.837398, -0.995131], [31.833571, -0.988361], [31.824151, -0.983945], [31.82474, -1.001607], [31.821208, -1.02133], [31.813849, -1.039875], [31.802957, -1.045468], [31.781469, -1.055182], [31.768517, -1.047528], [31.767045, -1.029572], [31.785001, -0.998664], [31.787945, -0.988655], [31.786473, -0.980413], [31.772343, -0.973348], [31.769988, -0.964517], [31.766162, -0.920068], [31.769105, -0.863845], [31.760569, -0.846477], [31.740846, -0.842651], [31.71818, -0.843534], [31.700813, -0.839413], [31.696986, -0.8244], [31.699047, -0.799379], [31.706111, -0.775241], [31.717592, -0.764644], [31.717886, -0.756991], [31.75527, -0.716369], [31.778819, -0.66927], [31.786473, -0.661617], [31.795009, -0.659262], [31.798247, -0.652491], [31.79707, -0.644838], [31.78559, -0.625704], [31.784707, -0.616285], [31.792949, -0.575957], [31.796481, -0.565654], [31.827684, -0.522677], [31.834748, -0.508547], [31.837986, -0.493829], [31.846817, -0.471458], [31.868306, -0.456739], [31.913049, -0.435839], [31.926296, -0.422299], [31.961325, -0.37785], [31.96839, -0.363426], [31.977515, -0.338111], [31.997826, -0.314561], [32.01902, -0.306025], [32.029618, -0.325747], [32.037271, -0.325747], [32.035799, -0.311323], [32.029618, -0.294545], [32.020787, -0.278649], [32.012839, -0.267463], [32.009895, -0.260987], [32.008718, -0.253039], [32.006068, -0.246563], [31.998709, -0.244208], [31.990173, -0.244503], [31.984285, -0.244208], [31.979576, -0.240382], [31.974571, -0.230373], [31.980164, -0.204764], [31.980459, -0.189457], [31.971333, -0.182686], [31.961325, -0.183569], [31.92659, -0.195638], [31.935421, -0.15531], [31.940131, -0.140298], [31.934538, -0.13912], [31.91982, -0.134116], [31.939836, -0.124697], [31.994883, -0.085841], [32.011956, -0.092611], [32.051695, -0.094966], [32.069945, -0.099381], [32.061703, -0.075832], [32.025791, -0.067296], [32.016077, -0.04463], [32.031089, -0.048751], [32.037271, -0.052283], [32.076716, -0.036387], [32.104386, -0.045513], [32.132056, -0.063175], [32.170029, -0.072594], [32.18828, -0.068473], [32.200349, -0.057582], [32.206236, -0.04198], [32.208002, -0.024318], [32.205353, -0.015782], [32.195933, 0.002469], [32.193578, 0.013655], [32.195639, 0.01807], [32.208002, 0.037204], [32.206825, 0.031022], [32.206825, 0.026018], [32.205353, 0.021602], [32.200349, 0.016598], [32.215361, -0.003419], [32.241265, -0.021375], [32.26923, -0.029028], [32.289835, -0.017548], [32.291602, 0.00188], [32.279533, 0.018953], [32.24833, 0.043974], [32.255689, 0.051333], [32.286009, 0.037498], [32.324276, 0.026901], [32.352241, 0.009533], [32.351946, -0.024318], [32.372846, -0.025202], [32.379028, -0.024318], [32.368725, -0.003713], [32.374907, 0.053982], [32.365487, 0.085479], [32.386092, 0.091661], [32.401105, 0.077826], [32.421122, 0.08283], [32.439078, 0.099314], [32.447615, 0.119037], [32.459095, 0.108734], [32.457917, 0.095193], [32.449969, 0.081653], [32.441139, 0.07135], [32.41965, 0.05516], [32.422005, 0.048684], [32.437606, 0.033671], [32.45203, 0.030139], [32.462921, 0.041325], [32.471752, 0.056337], [32.481761, 0.067818], [32.484116, 0.07606], [32.488237, 0.083419], [32.49589, 0.085479], [32.5006, 0.08077], [32.509431, 0.051333], [32.517968, 0.056632], [32.523855, 0.073999], [32.530037, 0.07812], [32.539751, 0.074882], [32.54711, 0.065757], [32.557412, 0.043974], [32.57007, 0.060458], [32.543872, 0.102258], [32.550642, 0.119037], [32.559473, 0.11315], [32.578018, 0.105202], [32.588026, 0.107851], [32.571542, 0.133461], [32.590676, 0.139348], [32.598329, 0.140231], [32.598329, 0.147001], [32.589498, 0.149945], [32.571542, 0.161425], [32.575369, 0.174672], [32.563005, 0.189684], [32.568009, 0.198515], [32.578901, 0.201459], [32.588026, 0.197338], [32.594797, 0.19616], [32.598329, 0.208524], [32.615991, 0.211467], [32.626588, 0.240021], [32.63483, 0.273284], [32.645427, 0.290946], [32.662795, 0.288885], [32.666916, 0.276816], [32.663383, 0.263275], [32.647782, 0.247674], [32.648077, 0.230895], [32.656613, 0.222064], [32.673392, 0.236488], [32.680751, 0.222064], [32.657496, 0.183208], [32.661323, 0.171728], [32.690465, 0.167313], [32.699296, 0.174083], [32.707244, 0.187918], [32.714897, 0.208524], [32.724906, 0.205874], [32.731087, 0.19616], [32.736091, 0.183797], [32.741684, 0.173789], [32.728438, 0.16643], [32.71107, 0.144647], [32.704006, 0.140231], [32.685755, 0.141114], [32.680751, 0.140231], [32.670448, 0.135227], [32.6625, 0.132872], [32.653081, 0.133461], [32.660734, 0.11992], [32.661323, 0.098431], [32.666621, 0.091661], [32.682223, 0.089012], [32.69488, 0.094605], [32.704594, 0.102258], [32.71107, 0.106085], [32.719607, 0.107262], [32.732265, 0.1105], [32.744039, 0.115799], [32.749043, 0.122864], [32.756108, 0.126102], [32.771709, 0.120214], [32.79673, 0.106085], [32.797319, 0.124924], [32.799085, 0.138759], [32.803206, 0.150239], [32.810566, 0.161425], [32.817336, 0.161425], [32.82234, 0.149651], [32.832348, 0.149651], [32.8453, 0.151711], [32.859136, 0.147001], [32.855309, 0.154949], [32.853248, 0.163192], [32.851482, 0.181148], [32.859136, 0.181148], [32.86414, 0.168784], [32.877681, 0.190567], [32.892987, 0.195572], [32.890044, 0.19145], [32.888278, 0.188507], [32.885628, 0.181148], [32.895931, 0.181442], [32.899169, 0.181148], [32.890927, 0.171434], [32.885923, 0.161131], [32.887395, 0.152594], [32.899169, 0.147001], [32.888866, 0.143175], [32.877681, 0.136404], [32.871499, 0.126985], [32.876209, 0.115799], [32.887983, 0.107262], [32.892693, 0.107262], [32.893282, 0.104907], [32.892987, 0.088717], [32.90123, 0.076943], [32.920658, 0.077826], [32.986301, 0.101081], [33.008084, 0.112855], [33.077554, 0.166135], [33.084913, 0.173789], [33.091978, 0.186152], [33.105224, 0.222064], [33.071667, 0.223536], [33.043113, 0.228835], [33.070489, 0.246497], [33.078731, 0.250029], [33.078731, 0.256799], [33.071078, 0.256799], [33.071078, 0.262981], [33.081086, 0.260332], [33.098748, 0.251795], [33.123769, 0.247085], [33.123475, 0.239726], [33.112877, 0.225597], [33.116999, 0.214411], [33.126418, 0.21706], [33.135544, 0.224714], [33.13937, 0.228835], [33.140842, 0.234133], [33.13937, 0.241198], [33.138782, 0.24738], [33.143197, 0.250029], [33.15085, 0.251206], [33.156149, 0.25415], [33.167335, 0.262981], [33.156443, 0.276522], [33.150556, 0.297422], [33.153794, 0.316261], [33.170573, 0.324503], [33.188823, 0.328919], [33.220026, 0.347463], [33.238571, 0.351879], [33.242103, 0.354528], [33.264181, 0.367775], [33.269774, 0.373073], [33.270657, 0.38632], [33.26683, 0.390441], [33.259176, 0.390735], [33.231212, 0.396917], [33.210018, 0.398388], [33.192945, 0.406042], [33.187352, 0.428119], [33.210901, 0.422821], [33.235922, 0.427236], [33.250346, 0.440483], [33.241809, 0.461677], [33.273895, 0.476689], [33.28302, 0.482871], [33.290673, 0.439599], [33.318638, 0.437539], [33.34572, 0.456378], [33.351901, 0.475217], [33.366031, 0.497], [33.385164, 0.490819], [33.389285, 0.484637], [33.372212, 0.461677], [33.349841, 0.421938], [33.354845, 0.41605], [33.362498, 0.41134], [33.366031, 0.407219], [33.349252, 0.391912], [33.325703, 0.389263], [33.310101, 0.381904], [33.317755, 0.351879], [33.328646, 0.359532], [33.366031, 0.373073], [33.369857, 0.363948], [33.368974, 0.355117], [33.365148, 0.34658], [33.35926, 0.338927], [33.376922, 0.343048], [33.394878, 0.341282], [33.411951, 0.334511], [33.427553, 0.324503], [33.426081, 0.33304], [33.424315, 0.338927], [33.420782, 0.342754], [33.413718, 0.345697], [33.441977, 0.356294], [33.455812, 0.357766], [33.469058, 0.351879], [33.454929, 0.345697], [33.46582, 0.330685], [33.483188, 0.324503], [33.494668, 0.31891], [33.489075, 0.304781], [33.508209, 0.300365], [33.507914, 0.283292], [33.494962, 0.27034], [33.475828, 0.277405], [33.482304, 0.280937], [33.489075, 0.283586], [33.47524, 0.289768], [33.45905, 0.294478], [33.444037, 0.295361], [33.434323, 0.290946], [33.426375, 0.295655], [33.418427, 0.297716], [33.400177, 0.297716], [33.405475, 0.288885], [33.413423, 0.283586], [33.434323, 0.277405], [33.420782, 0.270046], [33.43344, 0.261215], [33.439033, 0.258565], [33.447864, 0.256799], [33.426375, 0.243553], [33.439622, 0.227363], [33.465526, 0.208818], [33.482304, 0.187918], [33.489075, 0.187918], [33.486426, 0.216177], [33.487603, 0.230307], [33.492607, 0.236488], [33.501144, 0.232073], [33.503793, 0.221476], [33.502616, 0.195572], [33.511152, 0.202931], [33.522044, 0.217943], [33.53058, 0.222064], [33.529108, 0.211173], [33.525576, 0.200576], [33.516156, 0.181148], [33.525282, 0.18262], [33.531169, 0.185563], [33.534701, 0.191745], [33.536762, 0.201753], [33.544121, 0.201753], [33.545887, 0.185858], [33.555601, 0.179676], [33.566493, 0.183797], [33.571497, 0.198515], [33.580033, 0.20764], [33.598873, 0.215588], [33.617418, 0.227069], [33.626249, 0.246202], [33.618889, 0.298893], [33.619773, 0.310962], [33.629487, 0.320676], [33.642144, 0.323326], [33.655685, 0.319793], [33.667754, 0.310962], [33.68571, 0.325975], [33.694247, 0.330096], [33.70867, 0.332157], [33.720445, 0.330685], [33.735458, 0.325975], [33.748998, 0.319204], [33.755769, 0.310962], [33.733397, 0.306841], [33.715146, 0.298305], [33.7019, 0.284175], [33.69513, 0.262981], [33.706316, 0.267985], [33.718385, 0.268868], [33.730748, 0.266808], [33.742817, 0.262981], [33.742817, 0.256799], [33.733691, 0.248851], [33.720445, 0.23325], [33.709848, 0.215294], [33.70867, 0.201753], [33.721917, 0.193217], [33.763717, 0.190862], [33.776963, 0.187918], [33.78756, 0.197926], [33.787854, 0.208524], [33.786088, 0.220593], [33.789915, 0.236488], [33.804633, 0.220298], [33.807871, 0.199987], [33.809343, 0.177321], [33.81788, 0.153772], [33.823472, 0.166724], [33.827005, 0.193511], [33.83142, 0.208524], [33.862034, 0.188507], [33.893826, 0.173789], [33.895297, 0.192334], [33.905011, 0.199104], [33.915903, 0.204402], [33.920907, 0.219121], [33.965945, 0.256211], [33.972126, 0.262981], [33.980369, 0.264453], [33.98184, 0.26563], [33.982723, 0.264453], [33.989199, 0.256799], [33.993026, 0.251501], [34.001857, 0.232956], [34.003623, 0.225597], [34.001268, 0.212939], [33.991554, 0.181148], [33.989199, 0.164369], [33.990377, 0.134933], [33.988316, 0.119037], [33.982429, 0.106085], [33.974187, 0.102847], [33.965356, 0.10579], [33.957997, 0.10579], [33.955053, 0.095193], [33.956231, 0.075471], [33.958291, 0.066346], [33.961824, 0.057515], [33.968888, 0.05045], [33.977719, 0.044857], [33.985961, 0.038087], [33.989199, 0.026901], [33.989788, 0.01807], [33.99597, -0.010778], [33.99597, -0.040508], [33.999797, -0.04463], [34.018047, -0.045807], [34.024523, -0.048162], [34.030116, -0.052283], [34.030116, -0.058465], [34.020696, -0.070534], [34.027172, -0.074949], [34.038947, -0.074655], [34.043657, -0.072594], [34.055137, -0.087901], [34.05131, -0.085841], [34.054548, -0.091139], [34.055137, -0.096732], [34.057198, -0.101736], [34.064851, -0.10674], [34.064851, -0.096732], [34.066029, -0.088784], [34.068383, -0.081131], [34.071916, -0.072594], [34.064851, -0.072594], [34.07692, -0.063469], [34.094582, -0.059348], [34.12343, -0.058465], [34.13491, -0.064941], [34.130789, -0.079659], [34.112832, -0.10674], [34.128728, -0.106446], [34.138442, -0.11145], [34.137853, -0.117338], [34.12343, -0.120576], [34.115482, -0.12293], [34.091049, -0.135588], [34.085457, -0.140298], [34.093993, -0.168851], [34.122252, -0.185336], [34.158165, -0.191223], [34.187895, -0.188868], [34.184952, -0.208885], [34.195843, -0.221248], [34.229401, -0.237144], [34.249123, -0.252156], [34.253244, -0.26452], [34.236465, -0.298666], [34.251184, -0.29896], [34.256776, -0.305142], [34.253833, -0.314856], [34.243236, -0.325747], [34.252067, -0.328691], [34.262664, -0.334284], [34.272083, -0.340466], [34.277088, -0.346353], [34.278854, -0.358127], [34.276205, -0.36843], [34.272083, -0.376672], [34.270906, -0.381088], [34.287979, -0.396395], [34.302992, -0.390507], [34.313883, -0.373729], [34.318299, -0.35695], [34.325363, -0.341349], [34.376288, -0.301904], [34.386885, -0.284831], [34.388357, -0.265403], [34.383059, -0.244208], [34.372756, -0.223309], [34.357449, -0.228902], [34.346263, -0.219776], [34.341553, -0.203881], [34.34538, -0.188868], [34.359804, -0.179448], [34.377466, -0.178565], [34.406902, -0.182686], [34.446641, -0.168263], [34.461654, -0.168263], [34.491385, -0.179743], [34.505514, -0.18092], [34.520821, -0.171795], [34.534067, -0.159432], [34.548491, -0.149423], [34.564093, -0.142653], [34.600299, -0.137354], [34.623849, -0.123519], [34.646515, -0.117043], [34.658878, -0.108801], [34.669769, -0.098793], [34.674479, -0.089667], [34.722755, -0.091139], [34.73659, -0.085841], [34.735413, -0.109684], [34.730997, -0.123814], [34.731291, -0.137943], [34.74336, -0.162081], [34.750131, -0.154427], [34.756901, -0.165613], [34.768087, -0.179154], [34.781628, -0.190634], [34.795168, -0.195638], [34.798701, -0.206235], [34.832847, -0.27129], [34.836674, -0.272467], [34.846977, -0.279532], [34.85463, -0.28748], [34.849331, -0.291307], [34.846388, -0.294545], [34.84315, -0.301609], [34.837851, -0.308969], [34.82902, -0.312207], [34.809298, -0.306319], [34.782805, -0.286891], [34.770736, -0.291307], [34.749542, -0.287186], [34.748365, -0.300726], [34.754252, -0.320449], [34.753663, -0.335756], [34.740417, -0.340171], [34.678306, -0.346353], [34.658289, -0.344881], [34.612957, -0.331929], [34.604715, -0.332812], [34.595884, -0.335461], [34.586759, -0.335756], [34.575867, -0.328985], [34.569097, -0.322215], [34.562326, -0.318388], [34.554379, -0.318977], [34.544076, -0.325747], [34.527003, -0.32457], [34.497861, -0.32928], [34.467836, -0.337522], [34.448702, -0.346353], [34.450762, -0.367253], [34.449291, -0.396983], [34.456944, -0.424065], [34.499921, -0.441432], [34.50522, -0.45409], [34.505514, -0.467925], [34.503159, -0.476756], [34.4749, -0.493829], [34.472251, -0.497362], [34.460771, -0.501483], [34.436339, -0.520911], [34.423975, -0.525032], [34.407491, -0.521794], [34.40808, -0.513552], [34.415733, -0.504426], [34.420443, -0.497362], [34.418677, -0.489119], [34.409551, -0.468514], [34.403959, -0.459977], [34.395422, -0.450852], [34.386002, -0.44467], [34.374522, -0.441432], [34.359215, -0.442021], [34.365691, -0.459094], [34.360687, -0.472635], [34.347735, -0.479405], [34.331251, -0.476756], [34.326541, -0.470869], [34.318299, -0.453501], [34.311234, -0.44938], [34.304758, -0.452324], [34.304463, -0.460566], [34.307701, -0.469691], [34.311234, -0.476756], [34.284741, -0.465865], [34.244413, -0.429363], [34.21586, -0.42848], [34.219981, -0.418766], [34.22263, -0.415234], [34.189073, -0.422299], [34.174355, -0.450852], [34.161108, -0.517673], [34.150217, -0.531508], [34.13697, -0.53504], [34.10253, -0.532097], [34.101352, -0.534746], [34.085457, -0.551819], [34.077803, -0.554468], [34.063674, -0.555646], [34.057492, -0.558589], [34.065734, -0.568598], [34.075154, -0.57684], [34.082807, -0.58626], [34.085457, -0.599506], [34.081335, -0.607748], [34.072505, -0.616873], [34.062202, -0.624527], [34.054548, -0.627471], [34.047778, -0.641306], [34.037475, -0.730498], [34.057492, -0.728143], [34.0675, -0.748749], [34.071327, -0.776124], [34.071916, -0.795258], [34.078392, -0.797613], [34.119603, -0.826166], [34.165524, -0.841768], [34.174943, -0.846772], [34.183185, -0.871204], [34.169645, -0.886511], [34.150217, -0.898286], [34.139914, -0.911826], [34.127845, -0.953626], [34.124607, -0.977764], [34.133438, -0.997486], [34.133438, -1.003668], [34.117542, -0.999252], [34.071916, -0.97011], [34.066029, -0.996014], [34.058375, -1.002196], [34.037475, -0.997486], [34.048072, -1.01191], [34.063379, -1.015737], [34.079569, -1.01191], [34.092227, -1.003668], [34.09782, -1.018975], [34.087223, -1.022802], [34.072505, -1.025156], [34.064851, -1.035459], [34.0675, -1.043996], [34.072505, -1.046056], [34.075448, -1.048411], [34.071916, -1.059008], [34.040713, -1.079614], [34.033648, -1.082263], [34.03041, -1.088739], [34.028056, -1.095804], [34.023346, -1.100514], [34.016281, -1.101691], [33.992732, -1.100514], [33.975659, -1.105224], [33.980074, -1.115821], [33.990377, -1.128478], [33.992732, -1.138192], [33.963295, -1.172633], [33.948283, -1.18323], [33.915608, -1.198831], [33.900596, -1.20884], [33.886172, -1.223264], [33.87322, -1.255938], [33.885878, -1.277721], [33.908838, -1.285669], [33.927677, -1.278015], [33.933859, -1.278015], [33.931798, -1.282725], [33.929738, -1.289201], [33.927677, -1.292439], [33.927677, -1.298621], [33.946517, -1.303625], [33.966828, -1.316283], [33.982723, -1.333061], [33.989199, -1.350134], [33.988611, -1.359848], [33.985667, -1.369857], [33.979485, -1.376039], [33.968888, -1.374272], [33.967417, -1.369857], [33.969183, -1.362203], [33.972421, -1.355433], [33.975659, -1.353667], [33.961824, -1.340126], [33.95417, -1.336888], [33.933859, -1.334533], [33.915608, -1.323936], [33.905306, -1.320698], [33.882934, -1.319521], [33.821412, -1.326291], [33.804339, -1.319521], [33.792564, -1.334239], [33.79904, -1.348663], [33.82465, -1.374272], [33.820529, -1.37751], [33.81994, -1.379277], [33.819646, -1.381926], [33.81788, -1.387813], [33.832009, -1.383103], [33.843784, -1.387519], [33.852909, -1.397527], [33.858796, -1.408419], [33.797568, -1.387813], [33.781378, -1.397527], [33.781378, -1.409596], [33.791092, -1.421371], [33.804339, -1.429024], [33.812581, -1.429613], [33.830243, -1.427552], [33.838485, -1.429024], [33.847316, -1.43344], [33.849965, -1.437266], [33.851731, -1.441976], [33.858796, -1.449924], [33.867333, -1.470824], [33.871159, -1.470529], [33.875869, -1.469352], [33.879402, -1.470529], [33.890882, -1.480243], [33.894414, -1.486131], [33.893826, -1.497611], [33.909132, -1.487603], [33.918552, -1.48407], [33.927677, -1.48407], [33.93592, -1.489957], [33.940041, -1.499083], [33.94269, -1.507619], [33.944751, -1.511446], [33.952993, -1.513801], [33.955936, -1.518511], [33.952993, -1.523515], [33.944751, -1.525575], [33.940041, -1.524398], [33.932976, -1.518805], [33.927677, -1.518216], [33.927089, -1.520277], [33.923262, -1.525281], [33.918258, -1.529991], [33.913548, -1.532052]], [[34.14639, -0.405226], [34.119603, -0.415234], [34.119603, -0.427892], [34.132849, -0.431718], [34.149922, -0.432601], [34.161108, -0.435839], [34.204085, -0.407286], [34.217332, -0.389036], [34.22263, -0.360188], [34.214094, -0.36843], [34.207323, -0.388741], [34.202025, -0.394923], [34.191133, -0.394629], [34.182008, -0.387269], [34.16729, -0.366958], [34.158459, -0.39404], [34.153749, -0.401105], [34.14639, -0.405226]], [[33.946517, -0.464098], [33.945634, -0.472929], [33.951815, -0.476756], [33.971832, -0.480288], [33.998619, -0.49795], [34.017164, -0.504721], [34.026878, -0.497656], [34.048955, -0.490002], [34.057492, -0.482938], [34.061907, -0.474401], [34.059258, -0.470574], [34.05396, -0.467336], [34.05131, -0.459977], [34.045129, -0.437311], [34.03041, -0.432307], [33.99597, -0.442021], [33.964179, -0.444965], [33.955053, -0.44938], [33.950932, -0.454973], [33.946517, -0.464098]], [[31.815909, -1.800806], [31.810611, -1.819351], [31.840636, -1.795213], [31.849172, -1.779906], [31.850938, -1.758418], [31.845346, -1.753119], [31.842402, -1.751647], [31.837986, -1.751647], [31.836515, -1.774608], [31.826801, -1.788443], [31.815909, -1.800806]], [[31.774698, -2.139913], [31.786473, -2.147567], [31.797953, -2.151394], [31.802957, -2.145506], [31.821208, -2.136381], [31.82474, -2.130494], [31.806784, -2.12755], [31.793243, -2.124312], [31.785001, -2.114892], [31.781469, -2.10194], [31.782646, -2.087517], [31.775876, -2.079863], [31.768811, -2.093698], [31.764395, -2.107239], [31.764101, -2.121074], [31.769105, -2.135204], [31.774698, -2.139913]], [[31.91982, -2.416321], [31.920997, -2.398071], [31.913932, -2.383353], [31.904513, -2.369517], [31.899509, -2.354799], [31.901569, -2.336843], [31.907162, -2.32654], [31.907751, -2.32183], [31.895976, -2.320947], [31.868895, -2.310056], [31.860064, -2.283563], [31.856237, -2.252066], [31.844757, -2.224102], [31.840341, -2.215565], [31.828272, -2.209972], [31.817675, -2.202907], [31.816792, -2.182891], [31.810611, -2.182891], [31.790888, -2.23411], [31.788239, -2.25972], [31.810611, -2.252066], [31.807961, -2.267667], [31.801191, -2.281208], [31.790299, -2.288862], [31.775876, -2.285918], [31.782646, -2.320947], [31.802957, -2.315943], [31.822385, -2.316826], [31.830333, -2.322714], [31.816792, -2.333899], [31.82474, -2.34744], [31.844757, -2.364513], [31.850938, -2.374816], [31.851233, -2.388651], [31.840636, -2.411023], [31.837986, -2.426035], [31.840636, -2.441048], [31.848289, -2.454589], [31.860064, -2.460476], [31.875371, -2.453706], [31.912755, -2.423975], [31.91982, -2.416321]], [[31.899509, -1.635079], [31.940131, -1.66216], [31.937482, -1.651269], [31.93336, -1.64391], [31.91982, -1.628014], [31.896271, -1.615062], [31.892444, -1.610941], [31.888323, -1.610352], [31.858298, -1.621244], [31.868012, -1.636256], [31.871838, -1.653035], [31.872133, -1.690125], [31.867129, -1.690714], [31.865951, -1.688948], [31.865951, -1.686298], [31.865362, -1.682766], [31.865362, -1.699545], [31.858298, -1.744877], [31.888617, -1.691302], [31.897742, -1.662749], [31.899509, -1.635079]], [[32.069945, -2.292983], [32.071417, -2.27797], [32.06759, -2.267079], [32.059937, -2.265313], [32.050223, -2.279148], [32.044041, -2.279148], [32.045513, -2.269728], [32.048457, -2.260897], [32.051989, -2.252655], [32.056993, -2.245001], [32.050223, -2.252066], [32.046102, -2.247062], [32.04463, -2.242647], [32.044041, -2.231461], [32.025791, -2.233521], [32.009601, -2.242941], [31.993116, -2.25501], [31.974571, -2.265607], [31.960148, -2.271494], [31.951022, -2.277087], [31.947196, -2.285918], [31.951022, -2.292394], [31.972216, -2.289745], [31.981342, -2.292983], [31.985169, -2.308878], [31.974866, -2.322419], [31.960736, -2.334782], [31.954555, -2.34744], [31.966035, -2.340964], [31.969862, -2.343613], [31.971333, -2.350089], [31.974571, -2.354799], [31.975455, -2.357743], [31.974571, -2.361864], [31.974277, -2.365691], [31.977809, -2.367457], [31.981636, -2.366574], [31.98664, -2.364513], [31.989878, -2.362453], [31.988701, -2.361275], [32.003713, -2.361275], [32.020787, -2.357743], [32.037565, -2.350973], [32.050223, -2.341258], [32.069945, -2.292983]], [[32.282771, -0.353123], [32.323982, -0.354006], [32.318977, -0.337522], [32.297194, -0.314267], [32.289835, -0.298666], [32.28071, -0.303081], [32.277178, -0.308969], [32.278061, -0.316916], [32.283065, -0.325747], [32.273351, -0.330163], [32.264226, -0.330752], [32.255984, -0.326925], [32.24833, -0.318388], [32.255689, -0.305436], [32.212712, -0.321332], [32.187397, -0.327513], [32.166202, -0.325747], [32.152956, -0.311618], [32.156194, -0.291601], [32.173562, -0.257455], [32.172384, -0.239793], [32.157372, -0.234494], [32.111745, -0.237144], [32.086135, -0.231551], [32.073772, -0.230373], [32.064352, -0.235083], [32.06553, -0.244797], [32.064647, -0.254511], [32.050223, -0.257455], [32.050223, -0.263931], [32.077304, -0.273056], [32.091728, -0.280415], [32.09791, -0.288069], [32.099382, -0.295722], [32.102325, -0.298077], [32.106741, -0.299843], [32.111745, -0.305436], [32.111745, -0.309263], [32.105858, -0.316328], [32.104386, -0.322215], [32.116455, -0.329868], [32.144125, -0.338111], [32.172384, -0.34076], [32.187397, -0.331929], [32.193578, -0.331929], [32.202409, -0.341349], [32.218011, -0.35018], [32.228313, -0.360482], [32.221543, -0.373729], [32.231257, -0.378144], [32.241265, -0.386092], [32.248036, -0.396689], [32.24833, -0.408464], [32.242148, -0.413468], [32.233317, -0.413173], [32.225075, -0.409052], [32.216539, -0.39875], [32.205942, -0.407875], [32.197111, -0.421416], [32.197111, -0.42848], [32.18563, -0.429069], [32.1768, -0.43113], [32.170618, -0.435545], [32.166202, -0.442021], [32.166202, -0.44938], [32.170912, -0.458211], [32.167674, -0.471458], [32.152662, -0.497362], [32.135883, -0.515318], [32.132351, -0.525326], [32.138238, -0.538278], [32.166202, -0.538278], [32.165614, -0.531213], [32.167086, -0.523266], [32.173562, -0.504721], [32.178271, -0.506487], [32.189163, -0.509136], [32.193578, -0.510902], [32.19034, -0.497362], [32.189752, -0.478228], [32.187397, -0.469986], [32.22537, -0.462627], [32.241854, -0.463804], [32.241854, -0.469986], [32.236261, -0.47705], [32.238616, -0.483526], [32.247153, -0.488531], [32.258927, -0.490297], [32.263048, -0.487059], [32.265992, -0.4797], [32.271879, -0.472341], [32.283065, -0.469986], [32.274823, -0.432896], [32.270702, -0.386681], [32.282771, -0.353123]], [[32.342821, -0.261576], [32.347236, -0.265697], [32.351946, -0.27129], [32.369902, -0.269818], [32.365193, -0.258044], [32.351946, -0.241559], [32.344293, -0.227135], [32.339583, -0.215949], [32.328103, -0.204175], [32.312501, -0.197993], [32.296606, -0.202997], [32.305731, -0.205941], [32.315151, -0.211534], [32.323982, -0.219776], [32.331341, -0.230373], [32.321627, -0.235378], [32.319272, -0.242148], [32.322804, -0.249801], [32.331341, -0.257455], [32.333107, -0.252156], [32.334284, -0.252156], [32.337522, -0.250096], [32.339289, -0.25716], [32.342821, -0.261576]], [[32.388447, -0.367841], [32.400516, -0.366075], [32.413468, -0.366958], [32.413468, -0.360188], [32.400222, -0.35695], [32.394629, -0.348413], [32.389919, -0.338699], [32.379028, -0.331929], [32.369314, -0.334284], [32.368725, -0.344292], [32.37314, -0.35695], [32.379028, -0.366958], [32.372552, -0.364898], [32.358422, -0.362543], [32.351946, -0.360188], [32.354007, -0.370196], [32.356656, -0.374906], [32.360777, -0.375495], [32.388447, -0.367841]], [[32.531214, -2.32654], [32.536807, -2.307112], [32.532686, -2.283857], [32.523855, -2.282386], [32.512963, -2.287979], [32.502072, -2.285918], [32.49589, -2.285918], [32.498834, -2.312411], [32.502072, -2.320947], [32.474696, -2.32448], [32.464982, -2.314177], [32.467926, -2.271789], [32.461744, -2.271789], [32.454974, -2.283269], [32.446437, -2.283857], [32.438195, -2.277087], [32.433779, -2.265607], [32.407581, -2.342142], [32.409936, -2.354799], [32.42642, -2.362158], [32.432013, -2.379231], [32.434368, -2.399543], [32.441139, -2.416321], [32.45203, -2.420442], [32.462627, -2.418382], [32.472341, -2.411906], [32.481761, -2.402192], [32.492064, -2.404252], [32.506782, -2.396599], [32.519439, -2.383058], [32.523266, -2.367457], [32.519439, -2.369517], [32.518851, -2.370695], [32.518262, -2.371872], [32.516201, -2.374816], [32.51208, -2.35892], [32.520028, -2.343319], [32.531214, -2.32654]], [[32.538279, -0.390213], [32.543577, -0.373729], [32.529448, -0.378144], [32.523855, -0.381382], [32.516201, -0.387269], [32.508842, -0.383443], [32.504132, -0.384031], [32.502072, -0.391096], [32.502661, -0.40552], [32.502072, -0.408464], [32.489709, -0.418472], [32.469986, -0.420533], [32.454091, -0.42848], [32.477051, -0.441727], [32.47293, -0.46086], [32.455857, -0.479111], [32.441139, -0.490297], [32.444082, -0.49795], [32.448498, -0.502071], [32.454091, -0.503838], [32.461744, -0.504721], [32.470869, -0.499717], [32.481172, -0.492063], [32.486471, -0.48176], [32.481761, -0.469986], [32.492947, -0.465865], [32.5006, -0.458506], [32.521206, -0.420533], [32.523561, -0.409641], [32.523266, -0.394923], [32.530037, -0.394923], [32.536807, -0.408464], [32.537101, -0.398455], [32.538279, -0.390213]], [[32.753753, -0.018431], [32.749632, -0.027262], [32.753459, -0.03992], [32.762879, -0.052283], [32.782307, -0.036682], [32.803206, -0.009012], [32.81086, 0.019247], [32.789371, 0.037204], [32.789371, 0.016598], [32.78319, 0.016598], [32.773476, 0.020719], [32.767, 0.011594], [32.765233, -0.003713], [32.769649, -0.017548], [32.753753, -0.018431]], [[32.803795, -0.106446], [32.817336, -0.085841], [32.804384, -0.079953], [32.793198, -0.080248], [32.78525, -0.086724], [32.78319, -0.099381], [32.773476, -0.097026], [32.762879, -0.0932], [32.765822, -0.07701], [32.758757, -0.059937], [32.746689, -0.045807], [32.73462, -0.037859], [32.737269, -0.049339], [32.742567, -0.060231], [32.755519, -0.079659], [32.755519, -0.085841], [32.745511, -0.083191], [32.739035, -0.077598], [32.735797, -0.069356], [32.73462, -0.058465], [32.730204, -0.06759], [32.724022, -0.0723], [32.716369, -0.071417], [32.707538, -0.065235], [32.709599, -0.07701], [32.71372, -0.088195], [32.714308, -0.097909], [32.707538, -0.10674], [32.698707, -0.105857], [32.691642, -0.097615], [32.683989, -0.094083], [32.673392, -0.10674], [32.659557, -0.099381], [32.665444, -0.111156], [32.673981, -0.117926], [32.685755, -0.12087], [32.700768, -0.120576], [32.718724, -0.12558], [32.740801, -0.114983], [32.755519, -0.120576], [32.741684, -0.127346], [32.741684, -0.134116], [32.765822, -0.130878], [32.786428, -0.121459], [32.803795, -0.106446]], [[33.005729, -1.805221], [33.009261, -1.819351], [32.995426, -1.819351], [32.998664, -1.826416], [33.002491, -1.83819], [33.003668, -1.849082], [32.999253, -1.854086], [32.996898, -1.858796], [33.004846, -1.869687], [33.023391, -1.888232], [33.027218, -1.88941], [33.030456, -1.889998], [33.033988, -1.891176], [33.037226, -1.895002], [33.070489, -1.869687], [33.083735, -1.856146], [33.088151, -1.853791], [33.0908, -1.849082], [33.091683, -1.836718], [33.089917, -1.832597], [33.081381, -1.821117], [33.078731, -1.813169], [33.084913, -1.813169], [33.093449, -1.816702], [33.097571, -1.814347], [33.096982, -1.807871], [33.091683, -1.799628], [33.083441, -1.795507], [33.072255, -1.795802], [33.050767, -1.799628], [33.015737, -1.800512], [33.005729, -1.805221]], [[33.186763, -2.131966], [33.187352, -2.124606], [33.186174, -2.116659], [33.182936, -2.11607], [33.178521, -2.117247], [33.173517, -2.114892], [33.143786, -2.087811], [33.13466, -2.073976], [33.147024, -2.066911], [33.147024, -2.059552], [33.109345, -2.05131], [33.100514, -2.043362], [33.120237, -2.011276], [33.117587, -1.995969], [33.109934, -1.981251], [33.105224, -1.966827], [33.097276, -1.965355], [33.04694, -1.977424], [33.043702, -1.975658], [33.035754, -1.973303], [33.027218, -1.973303], [33.023391, -1.980662], [33.018975, -1.98184], [32.992483, -1.99126], [32.940969, -1.963295], [32.931549, -1.947988], [32.935965, -1.936802], [32.944796, -1.925616], [32.947739, -1.909426], [32.943029, -1.904422], [32.924779, -1.896474], [32.920363, -1.895002], [32.911532, -1.896474], [32.907117, -1.899712], [32.899169, -1.909426], [32.879741, -1.927088], [32.867967, -1.935036], [32.851482, -1.943278], [32.846478, -1.934742], [32.841474, -1.930915], [32.834703, -1.929737], [32.824989, -1.929149], [32.831171, -1.943278], [32.846478, -1.959468], [32.851482, -1.970065], [32.859136, -1.970065], [32.863845, -1.971832], [32.89181, -1.974481], [32.899169, -1.977424], [32.897109, -1.989493], [32.887395, -2.003034], [32.850305, -2.041596], [32.845006, -2.050721], [32.844712, -2.059552], [32.853248, -2.071915], [32.862079, -2.070443], [32.871499, -2.066322], [32.882685, -2.069855], [32.904468, -2.085456], [32.928606, -2.092226], [32.978647, -2.093698], [32.996015, -2.098997], [33.043113, -2.135204], [33.055771, -2.140502], [33.066662, -2.139325], [33.07461, -2.132849], [33.078731, -2.121663], [33.10228, -2.134321], [33.120531, -2.152277], [33.141725, -2.166701], [33.173517, -2.16935], [33.163508, -2.154043], [33.167629, -2.147567], [33.17646, -2.146978], [33.180876, -2.148744], [33.185585, -2.137559], [33.186763, -2.131966]], [[33.184114, 0.149945], [33.194711, 0.161425], [33.176755, 0.161425], [33.165863, 0.147001], [33.164097, 0.125513], [33.173517, 0.106085], [33.180876, 0.117271], [33.184114, 0.149945]], [[33.295972, 0.030728], [33.30392, 0.043974], [33.28302, 0.043974], [33.284786, 0.048684], [33.288024, 0.059575], [33.290379, 0.063696], [33.264181, 0.057515], [33.250346, 0.049567], [33.247696, 0.035437], [33.256233, 0.010417], [33.284492, 0.021897], [33.295972, 0.030728]], [[33.38693, 0.251206], [33.400177, 0.256799], [33.388402, 0.272401], [33.381043, 0.287413], [33.371035, 0.297716], [33.351901, 0.297716], [33.351901, 0.290946], [33.359555, 0.288885], [33.365736, 0.285058], [33.370152, 0.278582], [33.372212, 0.270046], [33.366031, 0.270046], [33.356905, 0.274461], [33.349841, 0.267102], [33.347191, 0.254444], [33.351901, 0.24267], [33.343365, 0.245908], [33.341598, 0.247085], [33.338066, 0.250029], [33.329235, 0.239137], [33.319815, 0.240315], [33.314517, 0.247968], [33.317755, 0.256799], [33.317755, 0.262981], [33.295972, 0.263275], [33.293911, 0.274167], [33.30392, 0.288296], [33.317755, 0.297716], [33.298327, 0.305075], [33.278016, 0.304486], [33.238571, 0.297716], [33.233272, 0.294184], [33.211195, 0.266513], [33.205013, 0.255916], [33.20884, 0.249735], [33.221498, 0.24267], [33.255055, 0.207935], [33.259176, 0.201753], [33.263298, 0.198515], [33.26212, 0.19145], [33.256233, 0.184386], [33.245636, 0.181148], [33.235627, 0.181736], [33.207663, 0.187918], [33.228268, 0.153772], [33.235039, 0.153772], [33.246813, 0.164958], [33.264475, 0.153183], [33.279193, 0.129928], [33.28302, 0.106085], [33.293911, 0.109912], [33.301271, 0.117565], [33.304509, 0.127868], [33.30392, 0.140231], [33.31069, 0.140231], [33.310101, 0.100198], [33.316283, 0.084891], [33.332473, 0.07812], [33.339244, 0.079886], [33.342187, 0.081653], [33.344836, 0.085479], [33.324525, 0.09696], [33.319227, 0.119037], [33.325114, 0.141703], [33.338066, 0.153772], [33.325114, 0.160248], [33.317755, 0.171434], [33.316872, 0.184091], [33.324525, 0.195572], [33.318344, 0.210878], [33.32482, 0.219121], [33.3363, 0.217355], [33.344836, 0.201753], [33.352196, 0.210878], [33.35926, 0.217355], [33.366325, 0.219121], [33.372212, 0.215883], [33.378688, 0.227657], [33.381632, 0.240315], [33.38693, 0.251206]], [[33.726038, -0.129701], [33.728687, -0.108801], [33.718973, -0.099381], [33.704844, -0.104091], [33.671286, -0.126757], [33.653919, -0.134116], [33.653919, -0.140298], [33.670698, -0.138237], [33.681589, -0.139709], [33.689242, -0.147068], [33.69513, -0.162081], [33.7019, -0.154427], [33.715441, -0.168263], [33.726038, -0.129701]], [[33.769604, 0.07812], [33.781084, 0.072822], [33.81994, 0.064874], [33.83142, 0.063696], [33.842901, 0.067818], [33.85232, 0.073116], [33.863506, 0.073705], [33.879402, 0.063696], [33.88264, 0.078709], [33.866744, 0.090484], [33.843784, 0.095782], [33.82465, 0.091661], [33.812287, 0.11521], [33.786088, 0.115799], [33.765483, 0.100786], [33.769604, 0.07812]]]}}, {"type": "Feature", "properties": {"featurecla": "Lake", "scalerank": 4, "name": "Lake Edward", "name_abb": "L. Edward", "name_alt": null, "note": null, "delta": null, "dam_name": null, "year": -99, "admin": "admin-0", "min_zoom": 4, "min_label": 5, "label": "Lake Edward", "wikidataid": "Q125211", "name_ar": "\u0628\u062d\u064a\u0631\u0629 \u0625\u062f\u0648\u0627\u0631\u062f", "name_bn": "\u098f\u09a1\u0993\u09af\u09bc\u09be\u09b0\u09cd\u09a1 \u09b9\u09cd\u09b0\u09a6", "name_de": "Eduardsee", "name_en": "Edward", "name_es": "Eduardo", "name_fr": "\u00c9douard", "name_el": "\u039b\u03af\u03bc\u03bd\u03b7 \u0395\u03b4\u03bf\u03c5\u03ac\u03c1\u03b4\u03bf\u03c5", "name_hi": "\u090d\u0921\u094d\u0935\u0930\u094d\u0921 \u091d\u0940\u0932", "name_hu": "Edward-t\u00f3", "name_id": "Edward", "name_it": "Eduardo", "name_ja": "\u30a8\u30c9\u30ef\u30fc\u30c9\u6e56", "name_ko": "\uc5d0\ub4dc\uc6cc\ub4dc\ud638", "name_nl": "Edwardmeer", "name_pl": "Jezioro Edwarda", "name_pt": "Eduardo", "name_ru": "\u042d\u0434\u0432\u0430\u0440\u0434", "name_sv": "Edwardsj\u00f6n", "name_tr": "Edward", "name_vi": "Edward", "name_zh": "\u7231\u5fb7\u534e\u6e56", "ne_id": 1159113595, "name_fa": "\u062f\u0631\u06cc\u0627\u0686\u0647 \u0627\u062f\u0648\u0627\u0631\u062f", "name_he": "\u05d0\u05d2\u05dd \u05d0\u05d3\u05d5\u05d0\u05e8\u05d3", "name_uk": "\u0415\u0434\u0432\u0430\u0440\u0434", "name_ur": "\u062c\u06be\u06cc\u0644 \u0627\u06cc\u0688\u0648\u0631\u0688", "name_zht": "\u611b\u5fb7\u83ef\u6e56"}, "bbox": [29.309104, -0.689581, 29.901659, -0.069356], "geometry": {"type": "Polygon", "coordinates": [[[29.470416, -0.61599], [29.452165, -0.606865], [29.437741, -0.609514], [29.438919, -0.620111], [29.42685, -0.636596], [29.410954, -0.66721], [29.398002, -0.681634], [29.396825, -0.678101], [29.391821, -0.66927], [29.380635, -0.683105], [29.377397, -0.689581], [29.370038, -0.689581], [29.369449, -0.678396], [29.370332, -0.667504], [29.373276, -0.657201], [29.377397, -0.648076], [29.377691, -0.623349], [29.375631, -0.609809], [29.370038, -0.599506], [29.355614, -0.593324], [29.318524, -0.593913], [29.309104, -0.592736], [29.311165, -0.566537], [29.334125, -0.538867], [29.344428, -0.514435], [29.309104, -0.497362], [29.319701, -0.48176], [29.330593, -0.475873], [29.342662, -0.472046], [29.356791, -0.463804], [29.366211, -0.452618], [29.380046, -0.429952], [29.391821, -0.422004], [29.384461, -0.397572], [29.392409, -0.375789], [29.428616, -0.335756], [29.43833, -0.319271], [29.446572, -0.257455], [29.463645, -0.215949], [29.493376, -0.181215], [29.531938, -0.155016], [29.639086, -0.12293], [29.655276, -0.120576], [29.674704, -0.1141], [29.685596, -0.099676], [29.694427, -0.08378], [29.707085, -0.072594], [29.7324, -0.069356], [29.754477, -0.077598], [29.76949, -0.094377], [29.775377, -0.117043], [29.780676, -0.126168], [29.79245, -0.127346], [29.804225, -0.127052], [29.809523, -0.130878], [29.809818, -0.142947], [29.811289, -0.151778], [29.815116, -0.157665], [29.823064, -0.162081], [29.83631, -0.163553], [29.84573, -0.159432], [29.853972, -0.152956], [29.863686, -0.147657], [29.889296, -0.141181], [29.901659, -0.140298], [29.900776, -0.14854], [29.888118, -0.190929], [29.878993, -0.2551], [29.866924, -0.29425], [29.850146, -0.328985], [29.830129, -0.360188], [29.814822, -0.374317], [29.782147, -0.389624], [29.746529, -0.419944], [29.727396, -0.426125], [29.707379, -0.429069], [29.68589, -0.435839], [29.67235, -0.44732], [29.649095, -0.47705], [29.634671, -0.482938], [29.626134, -0.49118], [29.611122, -0.545637], [29.587867, -0.580372], [29.554898, -0.603038], [29.479835, -0.641306], [29.470416, -0.61599]]]}}, {"type": "Feature", "properties": {"featurecla": "Lake", "scalerank": 4, "name": null, "name_abb": null, "name_alt": null, "note": "_untitled_3", "delta": null, "dam_name": null, "year": -99, "admin": null, "min_zoom": 4, "min_label": 5, "label": null, "wikidataid": null, "name_ar": null, "name_bn": null, "name_de": null, "name_en": null, "name_es": null, "name_fr": null, "name_el": null, "name_hi": null, "name_hu": null, "name_id": null, "name_it": null, "name_ja": null, "name_ko": null, "name_nl": null, "name_pl": null, "name_pt": null, "name_ru": null, "name_sv": null, "name_tr": null, "name_vi": null, "name_zh": null, "ne_id": 1159113957, "name_fa": null, "name_he": null, "name_uk": null, "name_ur": null, "name_zht": null}, "bbox": [33.154677, 1.630302, 33.160564, 1.63354], "geometry": {"type": "Polygon", "coordinates": [[[33.157915, 1.632363], [33.160564, 1.63354], [33.155855, 1.630302], [33.154677, 1.63148], [33.15556, 1.632068], [33.157915, 1.632363]]]}}, {"type": "Feature", "properties": {"featurecla": "Lake", "scalerank": 5, "name": "Lake Kyoga", "name_abb": "L. Kyoga", "name_alt": null, "note": null, "delta": null, "dam_name": null, "year": -99, "admin": null, "min_zoom": 4.7, "min_label": 6, "label": "Lake Kyoga", "wikidataid": "Q124978", "name_ar": "\u0628\u062d\u064a\u0631\u0629 \u0643\u064a\u0648\u063a\u0627", "name_bn": "\u09b2\u09c7\u0995 \u0995\u09bf\u09df\u09cb\u0997\u09be", "name_de": "Kyogasee", "name_en": "Kyoga", "name_es": "Kyoga", "name_fr": "Kyoga", "name_el": "\u039b\u03af\u03bc\u03bd\u03b7 \u039a\u03b9\u03cc\u03b3\u03ba\u03b1", "name_hi": "\u0915\u094d\u092f\u094b\u0917\u093e \u091d\u0940\u0932", "name_hu": "Kyoga-t\u00f3", "name_id": "Kyoga", "name_it": "Kyoga", "name_ja": "\u30ad\u30aa\u30ac\u6e56", "name_ko": "\ud0a4\uc624\uac00\ud638", "name_nl": "Kyogameer", "name_pl": "Kioga", "name_pt": "Kyoga", "name_ru": "\u041a\u044c\u043e\u0433\u0430", "name_sv": "Kyogasj\u00f6n", "name_tr": "Kyoga", "name_vi": "Kyoga", "name_zh": "\u57fa\u5965\u52a0\u6e56", "ne_id": 1159114279, "name_fa": "\u062f\u0631\u06cc\u0627\u0686\u0647 \u06a9\u06cc\u0648\u06af\u0627", "name_he": "\u05e7\u05d9\u05d5\u05d2\u05d4", "name_uk": "\u041a\u0439\u043e\u0433\u0430", "name_ur": "\u062c\u06be\u06cc\u0644 \u06a9\u0627\u0626\u06cc\u0648\u06af\u0627", "name_zht": "\u57fa\u5967\u52a0\u6e56"}, "bbox": [32.536807, 1.215838, 33.496434, 1.773952], "geometry": {"type": "Polygon", "coordinates": [[[33.487897, 1.658856], [33.496434, 1.654735], [33.489075, 1.654735], [33.494373, 1.645021], [33.495845, 1.640605], [33.496434, 1.63354], [33.489075, 1.63354], [33.45434, 1.643843], [33.403121, 1.649436], [33.351901, 1.641783], [33.317755, 1.613229], [33.287435, 1.623238], [33.26006, 1.611757], [33.214727, 1.572018], [33.197949, 1.573784], [33.175283, 1.564659], [33.15556, 1.549941], [33.141136, 1.523154], [33.127007, 1.518738], [33.109934, 1.5155], [33.095216, 1.506964], [33.092861, 1.492246], [33.108168, 1.480765], [33.129951, 1.472818], [33.147024, 1.468991], [33.169984, 1.468402], [33.185291, 1.473406], [33.200009, 1.481648], [33.221498, 1.490185], [33.214727, 1.476644], [33.257705, 1.486358], [33.27625, 1.48577], [33.277133, 1.468991], [33.26212, 1.47635], [33.249757, 1.470463], [33.244164, 1.457216], [33.249462, 1.441909], [33.220615, 1.441615], [33.199715, 1.43926], [33.179404, 1.431018], [33.153205, 1.41365], [33.166157, 1.400404], [33.181464, 1.398932], [33.200009, 1.40011], [33.221498, 1.394517], [33.221498, 1.387158], [33.215022, 1.389218], [33.201187, 1.392162], [33.194711, 1.394517], [33.202953, 1.38127], [33.222381, 1.378032], [33.243281, 1.383036], [33.256233, 1.394517], [33.27831, 1.383036], [33.286552, 1.391867], [33.290379, 1.421304], [33.299504, 1.424542], [33.316577, 1.426014], [33.332473, 1.423659], [33.338066, 1.41365], [33.329235, 1.403642], [33.315694, 1.405408], [33.306569, 1.403053], [33.31069, 1.380387], [33.314517, 1.375383], [33.318932, 1.376266], [33.323642, 1.378032], [33.328352, 1.377149], [33.333062, 1.371851], [33.331296, 1.368907], [33.32688, 1.366846], [33.324525, 1.363608], [33.327175, 1.354483], [33.334239, 1.345358], [33.343365, 1.33741], [33.351901, 1.331817], [33.341893, 1.322692], [33.335711, 1.311212], [33.329235, 1.304736], [33.317755, 1.311506], [33.284492, 1.29826], [33.26889, 1.289429], [33.262414, 1.280892], [33.265358, 1.264702], [33.270657, 1.248512], [33.273895, 1.232322], [33.269774, 1.215838], [33.262414, 1.223785], [33.256822, 1.227318], [33.25064, 1.227023], [33.241809, 1.222608], [33.240632, 1.241742], [33.233567, 1.265585], [33.223853, 1.28884], [33.214727, 1.305324], [33.211195, 1.303558], [33.207957, 1.302675], [33.204719, 1.300909], [33.200892, 1.297671], [33.186469, 1.311506], [33.174694, 1.307974], [33.153205, 1.284719], [33.152617, 1.287074], [33.144669, 1.286485], [33.133189, 1.284719], [33.131717, 1.283541], [33.127301, 1.280598], [33.120531, 1.277654], [33.112877, 1.27736], [33.129951, 1.319159], [33.129951, 1.325635], [33.122592, 1.330345], [33.102575, 1.34889], [33.098748, 1.350068], [33.094627, 1.347713], [33.075493, 1.36302], [33.06784, 1.367435], [33.061069, 1.36508], [33.054593, 1.360959], [33.047529, 1.358899], [33.04017, 1.363608], [33.034282, 1.370379], [33.028395, 1.375677], [33.021625, 1.37921], [33.012794, 1.380387], [32.978353, 1.394811], [32.940969, 1.422776], [32.899463, 1.441321], [32.851482, 1.428074], [32.857075, 1.426014], [32.861196, 1.423659], [32.865906, 1.421893], [32.872676, 1.421304], [32.866789, 1.407469], [32.859136, 1.394517], [32.851482, 1.394517], [32.849716, 1.402759], [32.84795, 1.405997], [32.844417, 1.408057], [32.837647, 1.41365], [32.843829, 1.384214], [32.879741, 1.340059], [32.892987, 1.311506], [32.885628, 1.311506], [32.882096, 1.317099], [32.878269, 1.320631], [32.872971, 1.322986], [32.865317, 1.325635], [32.869144, 1.310623], [32.872676, 1.304441], [32.879447, 1.297671], [32.858547, 1.308857], [32.846772, 1.336821], [32.831171, 1.401287], [32.811154, 1.398932], [32.78319, 1.421009], [32.762879, 1.41365], [32.741979, 1.4163], [32.724317, 1.399226], [32.719901, 1.377738], [32.738152, 1.367435], [32.748749, 1.363903], [32.756697, 1.349479], [32.766411, 1.346241], [32.772593, 1.341825], [32.776125, 1.330934], [32.777302, 1.317688], [32.776419, 1.305324], [32.766705, 1.315038], [32.745511, 1.34683], [32.738152, 1.3536], [32.72049, 1.356838], [32.690171, 1.370968], [32.677219, 1.374206], [32.666621, 1.375089], [32.645427, 1.380387], [32.619523, 1.380387], [32.600684, 1.386863], [32.5842, 1.396872], [32.571542, 1.408646], [32.564183, 1.421304], [32.557412, 1.425425], [32.550642, 1.431018], [32.545638, 1.437788], [32.5424, 1.448385], [32.539751, 1.449268], [32.537396, 1.45074], [32.536807, 1.456039], [32.539162, 1.46016], [32.548581, 1.467519], [32.557707, 1.49931], [32.556824, 1.514028], [32.543577, 1.523743], [32.560945, 1.531102], [32.571542, 1.520799], [32.582433, 1.505198], [32.601861, 1.496955], [32.6625, 1.489302], [32.680751, 1.490185], [32.69488, 1.498722], [32.739624, 1.538166], [32.75758, 1.571429], [32.776714, 1.583204], [32.797319, 1.592035], [32.810566, 1.599983], [32.817336, 1.599983], [32.818219, 1.590269], [32.81763, 1.581438], [32.814981, 1.572901], [32.810566, 1.565248], [32.805856, 1.569958], [32.799674, 1.574667], [32.79673, 1.578789], [32.788783, 1.565248], [32.789077, 1.552885], [32.796436, 1.543171], [32.810566, 1.537872], [32.82028, 1.541699], [32.831465, 1.55053], [32.842062, 1.556417], [32.851482, 1.551707], [32.87091, 1.558772], [32.885923, 1.555534], [32.899169, 1.555828], [32.913593, 1.572018], [32.93567, 1.553473], [32.958925, 1.559066], [32.979825, 1.567897], [32.995426, 1.558477], [32.990716, 1.554356], [32.988067, 1.549941], [32.982474, 1.537872], [33.008378, 1.542287], [33.033399, 1.560244], [33.071078, 1.599983], [33.076376, 1.60381], [33.083441, 1.607636], [33.089328, 1.611757], [33.091683, 1.616762], [33.090211, 1.626476], [33.088151, 1.631774], [33.087562, 1.635601], [33.091683, 1.640899], [33.107579, 1.64973], [33.11641, 1.645609], [33.11641, 1.635895], [33.105224, 1.627359], [33.105224, 1.620588], [33.114055, 1.61529], [33.119354, 1.609402], [33.124946, 1.605576], [33.133189, 1.606164], [33.137015, 1.609402], [33.148496, 1.623532], [33.155855, 1.630302], [33.160564, 1.627359], [33.153205, 1.620588], [33.170573, 1.627064], [33.174694, 1.636778], [33.175871, 1.649436], [33.184114, 1.665037], [33.192061, 1.671513], [33.197654, 1.671808], [33.201775, 1.669747], [33.207663, 1.668275], [33.207074, 1.663565], [33.214433, 1.655618], [33.223853, 1.652968], [33.228268, 1.665037], [33.230623, 1.666803], [33.240632, 1.685054], [33.241809, 1.688881], [33.251523, 1.692119], [33.257116, 1.68947], [33.259176, 1.684465], [33.259176, 1.68211], [33.250934, 1.674457], [33.250346, 1.657678], [33.257705, 1.641194], [33.2736, 1.63354], [33.285375, 1.639133], [33.310985, 1.665332], [33.324525, 1.674457], [33.376922, 1.68211], [33.392818, 1.688881], [33.420488, 1.748048], [33.437855, 1.773952], [33.454929, 1.763944], [33.439916, 1.755113], [33.434323, 1.732447], [33.436089, 1.67063], [33.442271, 1.674457], [33.455223, 1.68476], [33.475828, 1.688881], [33.472296, 1.680639], [33.470824, 1.672396], [33.469058, 1.654735], [33.475828, 1.654735], [33.480833, 1.65915], [33.483776, 1.660327], [33.487897, 1.658856]], [[32.865317, 1.441909], [32.865317, 1.44868], [32.751398, 1.446913], [32.741684, 1.44868], [32.736975, 1.451918], [32.733148, 1.457511], [32.726966, 1.461632], [32.714897, 1.46222], [32.732559, 1.441615], [32.751104, 1.431312], [32.77377, 1.429546], [32.803795, 1.435433], [32.824106, 1.425131], [32.834998, 1.42778], [32.845595, 1.436022], [32.865317, 1.441909]]]}}, {"type": "Feature", "properties": {"featurecla": "Lake", "scalerank": 7, "name": "Lake Kwania", "name_abb": "L. Kwania", "name_alt": null, "note": null, "delta": null, "dam_name": null, "year": -99, "admin": null, "min_zoom": 5.7, "min_label": 6.7, "label": "Lake Kwania", "wikidataid": "Q487953", "name_ar": "\u0628\u062d\u064a\u0631\u0629 \u0643\u0648\u0627\u0646\u064a\u0627", "name_bn": "\u09b2\u09c7\u0995 \u0995\u09cb\u09df\u09be\u09a8\u09bf\u09df\u09be", "name_de": "Lake Kwania", "name_en": "Kwania", "name_es": "Kwania", "name_fr": "Lake Kwania", "name_el": "\u039b\u03af\u03bc\u03bd\u03b7 \u039a\u03b2\u03ac\u03bd\u03b9\u03b1", "name_hi": "\u0915\u094d\u0935\u093e\u0928\u093f\u092f\u093e \u091d\u0940\u0932", "name_hu": "Kwania-t\u00f3", "name_id": "Danau Kwania", "name_it": "Lake Kwania", "name_ja": "\u30af\u30ef\u30cb\u30a2\u6e56", "name_ko": "\ub808\uc774\ud06c \ucf70\ub2c8\uc544", "name_nl": "Lake Kwania", "name_pl": "Jezioro Kwania", "name_pt": "Lago Kwania", "name_ru": "\u043e\u0437\u0435\u0440\u043e \u041a\u0432\u0430\u043d\u0438\u044f", "name_sv": "Kwaniasj\u00f6n", "name_tr": "Kwania G\u00f6l\u00fc", "name_vi": "H\u1ed3 Kwania", "name_zh": "\u5938\u5c3c\u4e9e\u6e56", "ne_id": 1159116645, "name_fa": "\u062f\u0631\u06cc\u0627\u0686\u0647 \u06a9\u0627\u0646\u06cc\u0627", "name_he": "\u05d0\u05d2\u05dd \u05e7\u05d5\u05d5\u05d0\u05e0\u05d9\u05d4", "name_uk": "\u043e\u0437\u0435\u0440\u043e \u041a\u0432\u0430\u043d\u0456\u044f", "name_ur": "\u062c\u06be\u06cc\u0644 \u06a9\u0648\u0627\u0646\u06cc\u0627", "name_zht": "\u5938\u5c3c\u4e9e\u6e56"}, "bbox": [32.235084, 1.551707, 33.023096, 1.929082], "geometry": {"type": "Polygon", "coordinates": [[[32.540339, 1.625298], [32.55388, 1.631185], [32.564183, 1.640899], [32.540339, 1.640899], [32.514435, 1.645021], [32.490297, 1.653263], [32.461155, 1.672396], [32.449381, 1.677695], [32.436723, 1.680933], [32.423477, 1.68211], [32.410819, 1.679755], [32.401694, 1.675046], [32.394923, 1.670336], [32.389036, 1.668275], [32.381088, 1.66386], [32.323982, 1.640899], [32.327808, 1.625887], [32.349591, 1.61735], [32.375201, 1.611757], [32.39198, 1.606164], [32.399928, 1.617939], [32.409642, 1.616762], [32.419356, 1.608519], [32.436723, 1.588797], [32.441139, 1.584676], [32.488531, 1.587914], [32.505016, 1.584087], [32.516201, 1.572018], [32.51679, 1.556711], [32.50531, 1.554062], [32.488826, 1.558477], [32.475285, 1.565248], [32.475285, 1.551707], [32.402282, 1.568191], [32.39198, 1.582615], [32.388447, 1.591741], [32.378733, 1.5991], [32.36637, 1.604398], [32.342527, 1.607342], [32.329869, 1.610286], [32.303376, 1.620588], [32.303376, 1.634423], [32.281004, 1.648847], [32.235084, 1.668275], [32.248036, 1.668864], [32.25981, 1.667392], [32.283065, 1.661505], [32.337817, 1.656795], [32.348119, 1.657973], [32.367842, 1.674751], [32.39198, 1.688881], [32.429364, 1.697712], [32.459095, 1.689175], [32.487354, 1.675634], [32.519734, 1.668275], [32.535924, 1.669158], [32.570953, 1.676223], [32.585083, 1.68211], [32.596268, 1.691824], [32.620701, 1.723027], [32.622467, 1.729797], [32.647782, 1.743044], [32.669271, 1.80015], [32.686933, 1.811631], [32.682223, 1.799267], [32.683989, 1.78867], [32.693703, 1.763944], [32.700768, 1.763944], [32.708716, 1.780134], [32.746689, 1.79809], [32.762879, 1.811631], [32.766705, 1.826643], [32.767294, 1.844894], [32.770826, 1.860201], [32.78319, 1.866382], [32.776419, 1.853136], [32.789077, 1.854608], [32.795259, 1.858729], [32.799968, 1.863439], [32.810566, 1.866382], [32.82234, 1.86285], [32.833232, 1.856374], [32.839413, 1.854902], [32.837647, 1.866382], [32.84795, 1.870798], [32.851482, 1.873741], [32.865317, 1.839595], [32.872676, 1.839595], [32.872676, 1.847249], [32.879447, 1.847249], [32.883862, 1.839301], [32.889749, 1.833119], [32.897403, 1.828704], [32.906823, 1.825466], [32.920069, 1.859612], [32.931255, 1.879334], [32.944207, 1.888165], [32.961869, 1.893758], [32.987184, 1.920545], [33.002785, 1.929082], [33.023096, 1.926727], [33.017798, 1.912303], [32.990128, 1.877274], [32.964224, 1.857257], [32.95451, 1.847249], [32.974821, 1.844599], [32.978353, 1.831942], [32.977764, 1.818107], [32.986007, 1.811631], [32.996309, 1.816046], [33.006023, 1.823111], [33.013677, 1.8237], [33.01662, 1.808393], [33.014854, 1.806626], [33.007201, 1.794852], [33.006023, 1.791908], [32.994837, 1.789259], [32.992777, 1.783372], [32.994543, 1.776307], [32.995426, 1.770714], [32.991599, 1.757762], [32.988656, 1.729503], [32.989245, 1.715668], [32.982474, 1.715668], [32.976587, 1.736862], [32.973938, 1.762177], [32.968639, 1.784843], [32.95451, 1.798679], [32.947739, 1.791908], [32.938614, 1.795441], [32.927134, 1.796029], [32.91742, 1.793674], [32.913593, 1.788081], [32.908883, 1.78396], [32.898286, 1.785727], [32.879447, 1.791908], [32.869733, 1.789553], [32.860607, 1.785432], [32.854131, 1.785432], [32.851482, 1.795146], [32.817336, 1.832825], [32.812626, 1.823994], [32.806739, 1.818401], [32.793198, 1.808393], [32.787016, 1.802211], [32.785839, 1.798384], [32.785545, 1.793674], [32.779952, 1.769537], [32.782601, 1.761294], [32.786722, 1.75423], [32.789371, 1.743338], [32.796436, 1.735979], [32.796436, 1.731858], [32.786428, 1.729797], [32.741684, 1.728326], [32.731087, 1.724793], [32.727849, 1.715374], [32.73462, 1.695651], [32.728144, 1.697712], [32.714014, 1.699478], [32.707538, 1.701833], [32.696647, 1.690353], [32.649843, 1.670041], [32.628649, 1.635307], [32.57949, 1.624121], [32.564183, 1.613229], [32.569187, 1.610874], [32.569481, 1.609697], [32.571542, 1.606164], [32.561533, 1.605576], [32.552408, 1.603221], [32.544166, 1.598805], [32.536807, 1.592624], [32.539162, 1.598217], [32.539456, 1.600866], [32.540339, 1.602632], [32.543577, 1.606164], [32.533569, 1.618822], [32.540339, 1.625298]]]}}, {"type": "Feature", "properties": {"featurecla": "Lake", "scalerank": 8, "name": "Lake Bunyonyi", "name_abb": "L. Bunyonyi", "name_alt": null, "note": null, "delta": null, "dam_name": null, "year": -99, "admin": null, "min_zoom": 6, "min_label": 7, "label": "Lake Bunyonyi", "wikidataid": "Q1010056", "name_ar": "\u0628\u062d\u064a\u0631\u0629 \u0628\u0648\u0646\u064a\u0648\u0646\u064a", "name_bn": "\u09b2\u09c7\u0995 \u09ac\u09c1\u09a8\u09cd\u09af\u09cb\u09a8\u09cd\u09af\u09bf", "name_de": "Bunyonyi", "name_en": "Bunyonyi", "name_es": "Bunyonyi", "name_fr": "Bunyonyi", "name_el": "\u039b\u03af\u03bc\u03bd\u03b7 \u039c\u03c0\u03bf\u03c5\u03bd\u03bf\u03c5\u03cc\u03bd\u03b9\u03b9", "name_hi": "\u092c\u0928\u092f\u094b\u0928\u0940 \u091d\u0940\u0932", "name_hu": "Bunyonyi-t\u00f3", "name_id": "Danau Bunyonyi", "name_it": "Bunyonyi", "name_ja": "\u30d6\u30cb\u30e7\u30cb\u6e56", "name_ko": "\ub808\uc774\ud06c \ubd80\ub1f0\uc774", "name_nl": "Lake Bunyonyi", "name_pl": "Lake Bunyonyi", "name_pt": "Lago Bunyonyi", "name_ru": "\u043e\u0437\u0435\u0440\u043e \u0411\u0443\u043d\u0438\u043e\u043d\u0438", "name_sv": "Bunyonyi", "name_tr": "Bunyonyi G\u00f6l\u00fc", "name_vi": "H\u1ed3 Bunyonyi", "name_zh": "\u672c\u5c3c\u5967\u5c3c\u6e56", "ne_id": 1159117553, "name_fa": "\u062f\u0631\u06cc\u0627\u0686\u0647 \u0628\u0648\u0646\u06cc\u0648\u0646\u06cc", "name_he": "\u05d0\u05d2\u05dd \u05d1\u05d5\u05e0\u05d9\u05d5\u05e0\u05d9", "name_uk": "\u043e\u0437\u0435\u0440\u043e \u0411\u0443\u043d\u0456\u043e\u043d\u0456", "name_ur": "\u062c\u06be\u06cc\u0644 \u0628\u0627\u0626\u0646\u06cc\u0648\u0646\u06cc", "name_zht": "\u672c\u5c3c\u5967\u5c3c\u6e56"}, "bbox": [29.830717, -1.353667, 29.966714, -1.200303], "geometry": {"type": "Polygon", "coordinates": [[[29.918732, -1.30598], [29.918438, -1.302742], [29.918732, -1.292439], [29.911373, -1.292439], [29.9152, -1.329235], [29.914023, -1.34513], [29.904897, -1.353667], [29.903425, -1.33159], [29.898421, -1.305685], [29.898421, -1.283608], [29.911373, -1.271834], [29.89224, -1.260353], [29.863981, -1.227679], [29.843081, -1.210312], [29.841903, -1.216199], [29.836899, -1.230917], [29.830717, -1.217671], [29.831306, -1.206485], [29.838077, -1.200303], [29.865158, -1.207074], [29.874578, -1.216199], [29.881937, -1.22709], [29.890768, -1.237099], [29.901659, -1.24328], [29.924031, -1.252406], [29.932273, -1.257704], [29.944048, -1.274777], [29.957588, -1.320109], [29.966714, -1.340126], [29.959649, -1.346308], [29.943165, -1.313045], [29.939338, -1.298621], [29.934628, -1.300681], [29.923148, -1.303919], [29.918732, -1.30598]]]}}], "bbox": [-165.965581688293, -50.6696665174836, 177.15437916069, 81.9552078693087]}